{
 "type": "FeatureCollection",
 "name": "bnd_downstream_waterlevel",
 "crs": {
  "type": "name",
  "properties": {
   "name": "urn:ogc:def:crs:OGC:1.3:CRS84"
  }
 },
 "features": [
  {
   "type": "Feature",
   "properties": {
    "bnd_id": "DW00",
    "bnd_type": "downstream_waterlevel",
    "station": "8720218",
    "station_name": "Mayport (Bar Pilots Dock)",
    "forcing": "NOAA 8720218 observed total water level h(t), m NAVD88",
    "kind": "seaward -2.0 m depth contour (Leijnse et al. 2021 §2.3/§4.1)",
    "width_m": 16620.0,
    "z_min_m": -17.33,
    "note": "redrawn by the user in QGIS on 2026-09-14; attributes recomputed on the 60 m grid by 12_apply_v2.py",
    "status": "user_edited_v2",
    "flow_area_m2": 31583.1,
    "length_m": 18433.1,
    "n_edge_cells": 277
   },
   "geometry": {
    "type": "LineString",
    "coordinates": [
     [
      -81.41896789955753,
      30.409155725715326
     ],
     [
      -81.4151546321525,
      30.406925933758146
     ],
     [
      -81.41251394952386,
      30.406337432280313
     ],
     [
      -81.4066001534635,
      30.405755747421917
     ],
     [
      -81.3973107851595,
      30.402792904503016
     ],
     [
      -81.39663543858576,
      30.402603807462366
     ],
     [
      -81.39585203656021,
      30.40087492023358
     ],
     [
      -81.39429889772495,
      30.399132473311866
     ],
     [
      -81.39252948970174,
      30.39729553063128
     ],
     [
      -81.39188115699095,
      30.396755253372284
     ],
     [
      -81.39055747770641,
      30.396957857344407
     ],
     [
      -81.39011174896773,
      30.396498621674258
     ],
     [
      -81.39061134714795,
      30.395850341724913
     ],
     [
      -81.3908878,
      30.3954451
     ],
     [
      -81.3915102,
      30.3949018
     ],
     [
      -81.39163547329403,
      30.394390221327914
     ],
     [
      -81.3921305,
      30.393817
     ],
     [
      -81.39257903270432,
      30.39268739825596
     ],
     [
      -81.3933688,
      30.3911061
     ],
     [
      -81.39368660108526,
      30.39043174069965
     ],
     [
      -81.393989,
      30.3900214
     ],
     [
      -81.39435326840031,
      30.388795924670557
     ],
     [
      -81.394607,
      30.3883952
     ],
     [
      -81.3946048,
      30.3878538
     ],
     [
      -81.39516473951785,
      30.385652502938477
     ],
     [
      -81.3952184,
      30.3851447
     ],
     [
      -81.39530946417814,
      30.384142839538907
     ],
     [
      -81.39543324254237,
      30.383270165138143
     ],
     [
      -81.3958255,
      30.3808114
     ],
     [
      -81.3958233,
      30.3802699
     ],
     [
      -81.3958211,
      30.3797285
     ],
     [
      -81.3958189,
      30.3791871
     ],
     [
      -81.3958168,
      30.3786456
     ],
     [
      -81.3958146,
      30.3781042
     ],
     [
      -81.3958124,
      30.3775628
     ],
     [
      -81.3958102,
      30.3770213
     ],
     [
      -81.395808,
      30.3764799
     ],
     [
      -81.3960578196797,
      30.37557719276263
     ],
     [
      -81.3960556196797,
      30.37503569276263
     ],
     [
      -81.3960534196797,
      30.37449429276263
     ],
     [
      -81.3960513196797,
      30.37395289276263
     ],
     [
      -81.3960491196797,
      30.37341139276263
     ],
     [
      -81.3960469196797,
      30.37286999276263
     ],
     [
      -81.39604471967971,
      30.37232859276263
     ],
     [
      -81.3960425196797,
      30.37178709276263
     ],
     [
      -81.3960403196797,
      30.37124569276263
     ],
     [
      -81.3960381196797,
      30.370704292762632
     ],
     [
      -81.3960360196797,
      30.37016279276263
     ],
     [
      -81.3960338196797,
      30.36962139276263
     ],
     [
      -81.3960316196797,
      30.369079992762632
     ],
     [
      -81.3960294196797,
      30.36853849276263
     ],
     [
      -81.39602721967971,
      30.367997092762632
     ],
     [
      -81.3960250196797,
      30.36745569276263
     ],
     [
      -81.39602291967971,
      30.366914192762632
     ],
     [
      -81.3960207196797,
      30.36637279276263
     ],
     [
      -81.3960185196797,
      30.36583139276263
     ],
     [
      -81.3960163196797,
      30.365289892762632
     ],
     [
      -81.3960141196797,
      30.36474849276263
     ],
     [
      -81.39601191967971,
      30.36420709276263
     ],
     [
      -81.3960098196797,
      30.36366559276263
     ],
     [
      -81.39600761967971,
      30.36312419276263
     ],
     [
      -81.3960054196797,
      30.36258279276263
     ],
     [
      -81.3960032196797,
      30.36204129276263
     ],
     [
      -81.3960010196797,
      30.36149989276263
     ],
     [
      -81.3959988196797,
      30.36095849276263
     ],
     [
      -81.3959967196797,
      30.36041699276263
     ],
     [
      -81.3959945196797,
      30.35987559276263
     ],
     [
      -81.3959923196797,
      30.35933419276263
     ],
     [
      -81.39599011967971,
      30.35879269276263
     ],
     [
      -81.3959879196797,
      30.35825129276263
     ],
     [
      -81.3959857196797,
      30.35770989276263
     ],
     [
      -81.39567784462957,
      30.35692004124285
     ],
     [
      -81.3954482267945,
      30.354259175742293
     ],
     [
      -81.3952962738154,
      30.348919189279115
     ],
     [
      -81.39541783619867,
      30.347946690212922
     ],
     [
      -81.39547186392457,
      30.34750096147425
     ],
     [
      -81.39532328767835,
      30.346852628763457
     ],
     [
      -81.3951162253636,
      30.34505475593739
     ],
     [
      -81.3950552,
      30.3445372
     ],
     [
      -81.395053,
      30.3439958
     ],
     [
      -81.3950508,
      30.3434543
     ],
     [
      -81.39476330401736,
      30.342799731518493
     ],
     [
      -81.39457436526104,
      30.34002706450311
     ],
     [
      -81.39456085832957,
      30.339567828832962
     ],
     [
      -81.3944092,
      30.3391247
     ],
     [
      -81.394407,
      30.3385833
     ],
     [
      -81.39408774639779,
      30.335195645666822
     ],
     [
      -81.39328661652469,
      30.328708044881324
     ],
     [
      -81.3931154,
      30.3277583
     ],
     [
      -81.3931132,
      30.3272169
     ],
     [
      -81.393111,
      30.3266755
     ],
     [
      -81.3931089,
      30.326134
     ],
     [
      -81.39293469764603,
      30.325700642170098
     ],
     [
      -81.3931045,
      30.3250511
     ],
     [
      -81.39275910753686,
      30.325065816390776
     ],
     [
      -81.39270507981095,
      30.324187865844905
     ],
     [
      -81.39225935107228,
      30.322458978616115
     ],
     [
      -81.39200707219396,
      30.320961186543023
     ],
     [
      -81.39189901674216,
      30.31958347953258
     ],
     [
      -81.391824,
      30.3169333
     ],
     [
      -81.39164238504414,
      30.316476885293348
     ],
     [
      -81.39152082266087,
      30.315896087239924
     ],
     [
      -81.391187,
      30.3136866
     ],
     [
      -81.3911848,
      30.3131451
     ],
     [
      -81.39100755926482,
      30.31265442368594
     ],
     [
      -81.3909130107445,
      30.312033104838097
     ],
     [
      -81.3905436,
      30.3088155
     ],
     [
      -81.39034571962256,
      30.308345712545442
     ],
     [
      -81.39033221269108,
      30.30773790062907
     ],
     [
      -81.3899067,
      30.3055687
     ],
     [
      -81.38964462546066,
      30.30502348225567
     ],
     [
      -81.38949604921444,
      30.304442684202247
     ],
     [
      -81.3890368135443,
      30.303119004917704
     ],
     [
      -81.38870334025744,
      30.301730136457795
     ],
     [
      -81.38870124025743,
      30.301188736457796
     ],
     [
      -81.38869914025743,
      30.300647236457795
     ],
     [
      -81.38869694025743,
      30.300105836457796
     ],
     [
      -81.38869484025743,
      30.299564336457795
     ],
     [
      -81.38869264025743,
      30.299022936457796
     ],
     [
      -81.3886309,
      30.2985337
     ],
     [
      -81.38846952242235,
      30.29797286402576
     ],
     [
      -81.38805080754662,
      30.296270990659917
     ],
     [
      -81.38782118971154,
      30.295649671812072
     ],
     [
      -81.38769962732827,
      30.294879776718002
     ],
     [
      -81.38745650256173,
      30.294123388555406
     ],
     [
      -81.38742948869877,
      30.293083354831836
     ],
     [
      -81.3873596,
      30.2925816
     ],
     [
      -81.38719987086371,
      30.29207033497121
     ],
     [
      -81.38705129461749,
      30.291313946808614
     ],
     [
      -81.38667310053619,
      30.288193845637913
     ],
     [
      -81.38628139952341,
      30.28718082577729
     ],
     [
      -81.38595723316801,
      30.286113778190774
     ],
     [
      -81.385454,
      30.2839241
     ],
     [
      -81.38524371368443,
      30.283326733679964
     ],
     [
      -81.38480473841149,
      30.281800450423297
     ],
     [
      -81.3848195,
      30.2812187
     ],
     [
      -81.3848174,
      30.2806772
     ],
     [
      -81.3848153,
      30.2801358
     ],
     [
      -81.3848132,
      30.2795944
     ],
     [
      -81.38441979086447,
      30.27888970669045
     ],
     [
      -81.38408132615581,
      30.277274705053802
     ],
     [
      -81.38405431229286,
      30.27639675450793
     ],
     [
      -81.38403953068526,
      30.2758601277259
     ],
     [
      -81.38340733068526,
      30.2736962277259
     ],
     [
      -81.38331143106174,
      30.273101063228058
     ],
     [
      -81.38313584095256,
      30.27264182755791
     ],
     [
      -81.38290622311749,
      30.27204752257301
     ],
     [
      -81.38277115380274,
      30.270885926466168
     ],
     [
      -81.38240878815675,
      30.26923755321172
     ],
     [
      -81.38222892437003,
      30.26831190631407
     ],
     [
      -81.38209385505527,
      30.267825656780975
     ],
     [
      -81.38195878574052,
      30.267379928042303
     ],
     [
      -81.38183722335725,
      30.266731595331503
     ],
     [
      -81.38176968869989,
      30.265907672511542
     ],
     [
      -81.38162111245367,
      30.26546194377287
     ],
     [
      -81.38136448075565,
      30.2646920486788
     ],
     [
      -81.38131045302974,
      30.26455697936405
     ],
     [
      -81.38117169041342,
      30.26347500028687
     ],
     [
      -81.38103662109866,
      30.262711858658534
     ]
    ]
   }
  },
  {
   "type": "Feature",
   "properties": {
    "bnd_id": "DW01",
    "bnd_type": "downstream_waterlevel",
    "station": "8720218",
    "station_name": "Mayport (Bar Pilots Dock)",
    "forcing": "NOAA 8720218 observed total water level h(t), m NAVD88",
    "kind": "water-body cut added by the user in QGIS",
    "width_m": 360.0,
    "z_min_m": -3.58,
    "note": "redrawn by the user in QGIS on 2026-09-14; attributes recomputed on the 60 m grid by 12_apply_v2.py",
    "status": "user_edited_v2",
    "flow_area_m2": 732.9,
    "length_m": 590.7,
    "n_edge_cells": 6
   },
   "geometry": {
    "type": "LineString",
    "coordinates": [
     [
      -81.45755280581388,
      30.437707830501278
     ],
     [
      -81.45658333104988,
      30.437578567199413
     ],
     [
      -81.45609859366789,
      30.43670603991182
     ],
     [
      -81.45535532968215,
      30.434960985336634
     ],
     [
      -81.45480596064922,
      30.434217721350905
     ],
     [
      -81.4540626966635,
      30.43379761561984
     ]
    ]
   }
  }
 ]
}