{
"type": "FeatureCollection",
"name": "bnd_downstream_waterlevel",
"crs": { "type": "name", "properties": { "name": "urn:ogc:def:crs:OGC:1.3:CRS84" } },
"features": [
{"type":"Feature","properties":{"bnd_id":"DW00","bnd_type":"downstream_waterlevel","station":"8720218","station_name":"Mayport (Bar Pilots Dock)","forcing":"NOAA 8720218 observed total water level h(t), m NAVD88","kind":"seaward -2.0 m depth contour (Leijnse et al. 2021 §2.3/§4.1)","width_m":27120.0,"z_min_m":-2.0,"along_channel_km_to_acosta":null,"note":"SFINCS interpolates each boundary cell water level by weighting the two nearest boundary points","status":"candidate - editable in QGIS"},"geometry":{"type":"LineString","coordinates":[[-81.418967899557529,30.409155725715326],[-81.415154632152493,30.406925933758146],[-81.412513949523856,30.406337432280313],[-81.406600153463501,30.405755747421917],[-81.397310785159505,30.402792904503016],[-81.396635438585761,30.402603807462366],[-81.395852036560214,30.40087492023358],[-81.394298897724951,30.399132473311866],[-81.392529489701744,30.397295530631279],[-81.391881156990948,30.396755253372284],[-81.390557477706409,30.396957857344407],[-81.390111748967726,30.396498621674258],[-81.390611347147953,30.395850341724913],[-81.3908878,30.3954451],[-81.3915102,30.3949018],[-81.391635473294031,30.394390221327914],[-81.3921305,30.393817],[-81.392579032704319,30.392687398255958],[-81.3933688,30.3911061],[-81.393686601085264,30.39043174069965],[-81.393989,30.3900214],[-81.394353268400309,30.388795924670557],[-81.394607,30.3883952],[-81.3946048,30.3878538],[-81.395164739517853,30.385652502938477],[-81.3952184,30.3851447],[-81.395309464178141,30.384142839538907],[-81.395433242542367,30.383270165138143],[-81.3958255,30.3808114],[-81.3958233,30.3802699],[-81.3958211,30.3797285],[-81.3958189,30.3791871],[-81.3958168,30.3786456],[-81.3958146,30.3781042],[-81.3958124,30.3775628],[-81.3958102,30.3770213],[-81.395808,30.3764799],[-81.396057819679697,30.375577192762631],[-81.3960556196797,30.37503569276263],[-81.396053419679703,30.37449429276263],[-81.3960513196797,30.373952892762631],[-81.396049119679702,30.37341139276263],[-81.396046919679705,30.372869992762631],[-81.396044719679708,30.372328592762631],[-81.396042519679696,30.371787092762631],[-81.396040319679699,30.371245692762631],[-81.396038119679702,30.370704292762632],[-81.396036019679698,30.370162792762631],[-81.396033819679701,30.369621392762632],[-81.396031619679704,30.369079992762632],[-81.396029419679707,30.368538492762632],[-81.396027219679709,30.367997092762632],[-81.396025019679698,30.367455692762629],[-81.396022919679709,30.366914192762632],[-81.396020719679697,30.366372792762629],[-81.3960185196797,30.36583139276263],[-81.396016319679703,30.365289892762632],[-81.396014119679705,30.364748492762629],[-81.396011919679708,30.36420709276263],[-81.396009819679705,30.363665592762629],[-81.396007619679708,30.36312419276263],[-81.396005419679696,30.36258279276263],[-81.396003219679699,30.36204129276263],[-81.396001019679701,30.36149989276263],[-81.395998819679704,30.360958492762631],[-81.395996719679701,30.36041699276263],[-81.395994519679704,30.359875592762631],[-81.395992319679706,30.359334192762631],[-81.395990119679709,30.358792692762631],[-81.395987919679698,30.358251292762631],[-81.3959857196797,30.357709892762632],[-81.395677844629574,30.356920041242851],[-81.3954482267945,30.354259175742293],[-81.395296273815404,30.348919189279115],[-81.395417836198675,30.347946690212922],[-81.39547186392457,30.34750096147425],[-81.395323287678352,30.346852628763457],[-81.395116225363594,30.34505475593739],[-81.3950552,30.3445372],[-81.395053,30.3439958],[-81.3950508,30.3434543],[-81.39476330401736,30.342799731518493],[-81.394574365261036,30.340027064503111],[-81.394560858329569,30.339567828832962],[-81.3944092,30.3391247],[-81.394407,30.3385833],[-81.394087746397787,30.335195645666822],[-81.393286616524691,30.328708044881324],[-81.3931154,30.3277583],[-81.3931132,30.3272169],[-81.393111,30.3266755],[-81.3931089,30.326134],[-81.392934697646027,30.325700642170098],[-81.3931045,30.3250511],[-81.392759107536861,30.325065816390776],[-81.392705079810952,30.324187865844905],[-81.392259351072283,30.322458978616115],[-81.392007072193962,30.320961186543023],[-81.391899016742158,30.319583479532579],[-81.391824,30.3169333],[-81.391642385044136,30.316476885293348],[-81.391520822660866,30.315896087239924],[-81.391187,30.3136866],[-81.3911848,30.3131451],[-81.391007559264821,30.312654423685942],[-81.390913010744498,30.312033104838097],[-81.3905436,30.3088155],[-81.390345719622559,30.308345712545442],[-81.390332212691078,30.307737900629071],[-81.3899067,30.3055687],[-81.389644625460662,30.30502348225567],[-81.389496049214443,30.304442684202247],[-81.389036813544294,30.303119004917704],[-81.388703340257436,30.301730136457795],[-81.388701240257433,30.301188736457796],[-81.38869914025743,30.300647236457795],[-81.388696940257432,30.300105836457796],[-81.388694840257429,30.299564336457795],[-81.388692640257432,30.299022936457796],[-81.3886309,30.2985337],[-81.388469522422355,30.297972864025759],[-81.38805080754662,30.296270990659917],[-81.387821189711545,30.295649671812072],[-81.387699627328274,30.294879776718002],[-81.387456502561733,30.294123388555406],[-81.387429488698771,30.293083354831836],[-81.3873596,30.2925816],[-81.387199870863711,30.292070334971211],[-81.387051294617493,30.291313946808614],[-81.386673100536186,30.288193845637913],[-81.386281399523412,30.287180825777291],[-81.385957233168014,30.286113778190774],[-81.385454,30.2839241],[-81.385243713684432,30.283326733679964],[-81.384804738411489,30.281800450423297],[-81.3848195,30.2812187],[-81.3848174,30.2806772],[-81.3848153,30.2801358],[-81.3848132,30.2795944],[-81.38441979086447,30.27888970669045],[-81.384081326155808,30.277274705053802],[-81.384054312292861,30.276396754507932],[-81.384039530685257,30.275860127725899],[-81.383407330685259,30.2736962277259],[-81.383311431061742,30.273101063228058],[-81.383135840952562,30.272641827557909],[-81.382906223117487,30.272047522573011],[-81.382771153802736,30.270885926466168],[-81.382408788156752,30.26923755321172],[-81.382228924370025,30.268311906314072],[-81.382093855055274,30.267825656780975],[-81.381958785740522,30.267379928042303],[-81.381837223357252,30.266731595331503],[-81.38176968869989,30.265907672511542],[-81.381621112453672,30.26546194377287],[-81.38136448075565,30.2646920486788],[-81.381310453029741,30.264556979364048],[-81.381171690413424,30.263475000286871],[-81.381036621098659,30.262711858658534]]}},
{"type":"Feature","properties":{"bnd_id":"DW01","bnd_type":"downstream_waterlevel","station":"8720218","station_name":"Mayport (Bar Pilots Dock)","forcing":"NOAA 8720218 observed total water level h(t), m NAVD88","kind":"tributary cut","width_m":4140.0,"z_min_m":-23.36,"along_channel_km_to_acosta":30.48,"note":"SFINCS interpolates each boundary cell water level by weighting the two nearest boundary points","status":"candidate - editable in QGIS"},"geometry":{"type":"LineString","coordinates":[]}},
{"type":"Feature","properties":{"bnd_id":"DW02","bnd_type":"downstream_waterlevel","station":"8720218","station_name":"Mayport (Bar Pilots Dock)","forcing":"NOAA 8720218 observed total water level h(t), m NAVD88","kind":"tributary cut","width_m":600.0,"z_min_m":-2.04,"along_channel_km_to_acosta":33.48,"note":"SFINCS interpolates each boundary cell water level by weighting the two nearest boundary points","status":"candidate - editable in QGIS"},"geometry":{"type":"LineString","coordinates":[]}},
{"type":"Feature","properties":{"bnd_id":"DW03","bnd_type":"downstream_waterlevel","station":"8720218","station_name":"Mayport (Bar Pilots Dock)","forcing":"NOAA 8720218 observed total water level h(t), m NAVD88","kind":"tributary cut","width_m":540.0,"z_min_m":-2.75,"along_channel_km_to_acosta":32.94,"note":"SFINCS interpolates each boundary cell water level by weighting the two nearest boundary points","status":"candidate - editable in QGIS"},"geometry":{"type":"LineString","coordinates":[]}},
{"type":"Feature","properties":{"bnd_id":"DW04","bnd_type":"downstream_waterlevel","station":"8720218","station_name":"Mayport (Bar Pilots Dock)","forcing":"NOAA 8720218 observed total water level h(t), m NAVD88","kind":"tributary cut","width_m":360.0,"z_min_m":-3.58,"along_channel_km_to_acosta":27.12,"note":"SFINCS interpolates each boundary cell water level by weighting the two nearest boundary points","status":"candidate - editable in QGIS"},"geometry":{"type":"LineString","coordinates":[]}},
{"type":"Feature","properties":{"bnd_id":"DW05","bnd_type":"downstream_waterlevel","station":"8720218","station_name":"Mayport (Bar Pilots Dock)","forcing":"NOAA 8720218 observed total water level h(t), m NAVD88","kind":"tributary cut","width_m":360.0,"z_min_m":-0.79,"along_channel_km_to_acosta":null,"note":"SFINCS interpolates each boundary cell water level by weighting the two nearest boundary points","status":"candidate - editable in QGIS"},"geometry":{"type":"LineString","coordinates":[]}},
{"type":"Feature","properties":{"bnd_id":"DW06","bnd_type":"downstream_waterlevel","station":"8720218","station_name":"Mayport (Bar Pilots Dock)","forcing":"NOAA 8720218 observed total water level h(t), m NAVD88","kind":"tributary cut","width_m":240.0,"z_min_m":-1.9,"along_channel_km_to_acosta":null,"note":"SFINCS interpolates each boundary cell water level by weighting the two nearest boundary points","status":"candidate - editable in QGIS"},"geometry":{"type":"LineString","coordinates":[]}},
{"type":"Feature","properties":{"bnd_id":"DW07","bnd_type":"downstream_waterlevel","station":"8720218","station_name":"Mayport (Bar Pilots Dock)","forcing":"NOAA 8720218 observed total water level h(t), m NAVD88","kind":"tributary cut","width_m":120.0,"z_min_m":-1.41,"along_channel_km_to_acosta":null,"note":"SFINCS interpolates each boundary cell water level by weighting the two nearest boundary points","status":"candidate - editable in QGIS"},"geometry":{"type":"LineString","coordinates":[]}},
{"type":"Feature","properties":{"bnd_id":"DW08","bnd_type":"downstream_waterlevel","station":"8720218","station_name":"Mayport (Bar Pilots Dock)","forcing":"NOAA 8720218 observed total water level h(t), m NAVD88","kind":"tributary cut","width_m":120.0,"z_min_m":-1.23,"along_channel_km_to_acosta":null,"note":"SFINCS interpolates each boundary cell water level by weighting the two nearest boundary points","status":"candidate - editable in QGIS"},"geometry":{"type":"LineString","coordinates":[]}},
{"type":"Feature","properties":{"bnd_id":"DW09","bnd_type":"downstream_waterlevel","station":"8720218","station_name":"Mayport (Bar Pilots Dock)","forcing":"NOAA 8720218 observed total water level h(t), m NAVD88","kind":"tributary cut","width_m":120.0,"z_min_m":-1.15,"along_channel_km_to_acosta":30.18,"note":"SFINCS interpolates each boundary cell water level by weighting the two nearest boundary points","status":"candidate - editable in QGIS"},"geometry":{"type":"LineString","coordinates":[]}},
{"type":"Feature","properties":{"bnd_id":"DW10","bnd_type":"downstream_waterlevel","station":"8720218","station_name":"Mayport (Bar Pilots Dock)","forcing":"NOAA 8720218 observed total water level h(t), m NAVD88","kind":"tributary cut","width_m":120.0,"z_min_m":0.0,"along_channel_km_to_acosta":null,"note":"SFINCS interpolates each boundary cell water level by weighting the two nearest boundary points","status":"candidate - editable in QGIS"},"geometry":{"type":"LineString","coordinates":[]}},
{"type":"Feature","properties":{"bnd_id":"DW11","bnd_type":"downstream_waterlevel","station":"8720218","station_name":"Mayport (Bar Pilots Dock)","forcing":"NOAA 8720218 observed total water level h(t), m NAVD88","kind":"tributary cut","width_m":120.0,"z_min_m":-3.17,"along_channel_km_to_acosta":46.68,"note":"SFINCS interpolates each boundary cell water level by weighting the two nearest boundary points","status":"candidate - editable in QGIS"},"geometry":{"type":"LineString","coordinates":[]}},
{"type":"Feature","properties":{"bnd_id":"DW12","bnd_type":"downstream_waterlevel","station":"8720218","station_name":"Mayport (Bar Pilots Dock)","forcing":"NOAA 8720218 observed total water level h(t), m NAVD88","kind":"tributary cut","width_m":60.0,"z_min_m":-0.6,"along_channel_km_to_acosta":null,"note":"SFINCS interpolates each boundary cell water level by weighting the two nearest boundary points","status":"candidate - editable in QGIS"},"geometry":{"type":"LineString","coordinates":[]}},
{"type":"Feature","properties":{"bnd_id":"DW13","bnd_type":"downstream_waterlevel","station":"8720218","station_name":"Mayport (Bar Pilots Dock)","forcing":"NOAA 8720218 observed total water level h(t), m NAVD88","kind":"tributary cut","width_m":60.0,"z_min_m":-0.5,"along_channel_km_to_acosta":null,"note":"SFINCS interpolates each boundary cell water level by weighting the two nearest boundary points","status":"candidate - editable in QGIS"},"geometry":{"type":"LineString","coordinates":[]}},
{"type":"Feature","properties":{"bnd_id":"DW14","bnd_type":"downstream_waterlevel","station":"8720218","station_name":"Mayport (Bar Pilots Dock)","forcing":"NOAA 8720218 observed total water level h(t), m NAVD88","kind":"tributary cut","width_m":60.0,"z_min_m":-1.12,"along_channel_km_to_acosta":null,"note":"SFINCS interpolates each boundary cell water level by weighting the two nearest boundary points","status":"candidate - editable in QGIS"},"geometry":{"type":"LineString","coordinates":[]}},
{"type":"Feature","properties":{"bnd_id":"DW15","bnd_type":"downstream_waterlevel","station":"8720218","station_name":"Mayport (Bar Pilots Dock)","forcing":"NOAA 8720218 observed total water level h(t), m NAVD88","kind":"tributary cut","width_m":60.0,"z_min_m":-1.58,"along_channel_km_to_acosta":null,"note":"SFINCS interpolates each boundary cell water level by weighting the two nearest boundary points","status":"candidate - editable in QGIS"},"geometry":{"type":"LineString","coordinates":[]}},
{"type":"Feature","properties":{"bnd_id":"DW16","bnd_type":"downstream_waterlevel","station":"8720218","station_name":"Mayport (Bar Pilots Dock)","forcing":"NOAA 8720218 observed total water level h(t), m NAVD88","kind":"tributary cut","width_m":60.0,"z_min_m":-1.38,"along_channel_km_to_acosta":27.66,"note":"SFINCS interpolates each boundary cell water level by weighting the two nearest boundary points","status":"candidate - editable in QGIS"},"geometry":{"type":"LineString","coordinates":[]}},
{"type":"Feature","properties":{"bnd_id":"DW17","bnd_type":"downstream_waterlevel","station":"8720218","station_name":"Mayport (Bar Pilots Dock)","forcing":"NOAA 8720218 observed total water level h(t), m NAVD88","kind":"tributary cut","width_m":60.0,"z_min_m":-1.9,"along_channel_km_to_acosta":32.34,"note":"SFINCS interpolates each boundary cell water level by weighting the two nearest boundary points","status":"candidate - editable in QGIS"},"geometry":{"type":"LineString","coordinates":[]}},
{"type":"Feature","properties":{"bnd_id":"DW18","bnd_type":"downstream_waterlevel","station":"8720218","station_name":"Mayport (Bar Pilots Dock)","forcing":"NOAA 8720218 observed total water level h(t), m NAVD88","kind":"tributary cut","width_m":60.0,"z_min_m":-1.37,"along_channel_km_to_acosta":30.36,"note":"SFINCS interpolates each boundary cell water level by weighting the two nearest boundary points","status":"candidate - editable in QGIS"},"geometry":{"type":"LineString","coordinates":[]}},
{"type":"Feature","properties":{"bnd_id":null,"bnd_type":null,"station":null,"station_name":null,"forcing":null,"kind":null,"width_m":null,"z_min_m":null,"along_channel_km_to_acosta":null,"note":null,"status":null},"geometry":{"type":"LineString","coordinates":[[-81.457552805813876,30.437707830501278],[-81.456583331049885,30.437578567199413],[-81.456098593667889,30.436706039911819],[-81.455355329682149,30.434960985336634],[-81.454805960649225,30.434217721350905],[-81.454062696663499,30.433797615619842]]}}
]
}
