{
"type": "FeatureCollection",
"name": "bnd_upstream_discharge",
"crs": { "type": "name", "properties": { "name": "urn:ogc:def:crs:OGC:1.3:CRS84" } },
"features": [
{"type":"Feature","properties":{"bnd_id":"UP01","bnd_type":"upstream_discharge","station":"02246500","station_name":"ST. JOHNS RIVER AT JACKSONVILLE, FL (Acosta Bridge)","forcing":"USGS 02246500 parameter 00060 raw signed total discharge, not de-tided, Q(t), m3/s","width_m":660.0,"z_min_m":-11.16,"flow_area_m2":5402.8,"Q_fraction":0.7954,"along_channel_km_to_acosta":0.0,"note":"Q split by flow cross-section area fraction; the full discharge is not applied twice","status":"candidate - editable in QGIS"},"geometry":{"type":"LineString","coordinates":[[-81.639157315394371,30.318940171318985],[-81.639113836416584,30.318531468927858],[-81.639079053234369,30.317992329603392],[-81.639079053234369,30.317479277665594],[-81.639107728524451,30.317025208408889],[-81.639287541675003,30.316531203207226],[-81.639510406044337,30.316105734865769],[-81.63959820109892,30.315774815044634],[-81.639631968427608,30.315518183346608],[-81.639699503084984,30.315031933813511],[-81.639902107057097,30.314734781321064],[-81.639969641714472,30.31460646547205],[-81.640226273412495,30.314444382294351],[-81.640692262548384,30.314174243664855],[-81.641029935835263,30.31384332384372]]}},
{"type":"Feature","properties":{"bnd_id":"UP02","bnd_type":"upstream_discharge","station":"02246500","station_name":"ST. JOHNS RIVER AT JACKSONVILLE, FL (Acosta Bridge)","forcing":"USGS 02246500 parameter 00060 raw signed total discharge, not de-tided, Q(t), m3/s","width_m":360.0,"z_min_m":-5.14,"flow_area_m2":1389.9,"Q_fraction":0.2046,"along_channel_km_to_acosta":0.84,"note":"Q split by flow cross-section area fraction; the full discharge is not applied twice","status":"candidate - editable in QGIS"},"geometry":{"type":"LineString","coordinates":[]}}
]
}
