{
"type": "FeatureCollection",
"name": "huc10_extend_active",
"crs": { "type": "name", "properties": { "name": "urn:ogc:def:crs:OGC:1.3:CRS84" } },
"features": [
{"type":"Feature","properties":{"huc10":"0308010316","name":"Saint Johns River-Atlantic Ocean","areasqkm":614.4,"states":"FL","hutype":"S","loaddate":"20240815","source":"USGS WBD WBD_03_HU2_Shape/Shape/WBDHU10.shp","note":"core study area, not the active model domain"},"geometry":{"type":"MultiPolygon","coordinates":[[[[-81.6016555,30.5117657],[-81.601326,30.5111988],[-81.6011556,30.5109785],[-81.6008954,30.5107135],[-81.6003638,30.5102106],[-81.5998999,30.5098744],[-81.5994431,30.5095245],[-81.5991832,30.5092054],[-81.598994,30.5088995],[-81.598835,30.5085573],[-81.5985824,30.508211],[-81.598323,30.5079776],[-81.5978027,30.5076236],[-81.5976301,30.5075206],[-81.5972119,30.5072924],[-81.5966147,30.5070921],[-81.5962716,30.5070576],[-81.5957057,30.5070286],[-81.5951719,30.507022],[-81.5947652,30.507087],[-81.5945235,30.5071784],[-81.5940714,30.5074466],[-81.5935937,30.5077737],[-81.5931981,30.5080597],[-81.5928353,30.5083817],[-81.5926316,30.5085721],[-81.5924021,30.5087491],[-81.5921098,30.5088768],[-81.5917228,30.5089988],[-81.5913027,30.5090105],[-81.5906959,30.5089784],[-81.5901901,30.5088584],[-81.5899678,30.5087105],[-81.5897654,30.5085851],[-81.5895625,30.5083604],[-81.5894613,30.5081037],[-81.5893731,30.5077928],[-81.5893305,30.5073689],[-81.5893627,30.5069942],[-81.5894336,30.506809],[-81.5895416,30.5065152],[-81.5897279,30.5060406],[-81.5896971,30.5056211],[-81.5896399,30.5053778],[-81.5895265,30.5050985],[-81.5893365,30.5048558],[-81.5891022,30.5046763],[-81.5887217,30.5043803],[-81.5883679,30.5039848],[-81.5881712,30.5036563],[-81.5879947,30.5032737],[-81.5879449,30.5029535],[-81.5879581,30.5026106],[-81.5880034,30.5022855],[-81.5880354,30.502132],[-81.5882654,30.501779],[-81.5883611,30.5016026],[-81.5884768,30.5012411],[-81.5885339,30.5009837],[-81.5885347,30.5006905],[-81.5872427,30.5005519],[-81.5873376,30.5003529],[-81.5873668,30.5000731],[-81.5874036,30.4999556],[-81.5875282,30.4997746],[-81.5874203,30.4997615],[-81.5871789,30.4998032],[-81.5869264,30.499881],[-81.5865912,30.4999683],[-81.5863873,30.5000324],[-81.5859756,30.5001696],[-81.585575,30.5003202],[-81.5853321,30.5003935],[-81.5851036,30.500566],[-81.584798,30.5008155],[-81.5844922,30.5010876],[-81.5839567,30.5014419],[-81.5834603,30.5018593],[-81.5828932,30.502331],[-81.5823897,30.5027032],[-81.5820338,30.5029891],[-81.5817716,30.5031392],[-81.5815746,30.5032664],[-81.581435,30.5033798],[-81.5813269,30.5034524],[-81.5811854,30.5037418],[-81.5811149,30.5038324],[-81.580918,30.5039686],[-81.5807201,30.504141],[-81.5805165,30.5042456],[-81.580405,30.5042777],[-81.5802373,30.5043281],[-81.580021,30.5042659],[-81.5798056,30.5041225],[-81.5797226,30.503983],[-81.5795648,30.5037852],[-81.5793942,30.5035693],[-81.5789941,30.5032056],[-81.5785888,30.5028465],[-81.57829,30.5026448],[-81.5779477,30.5023756],[-81.57746,30.5019582],[-81.5773338,30.5017602],[-81.5771184,30.5013957],[-81.5768525,30.5010359],[-81.5766113,30.5007798],[-81.5763524,30.5005012],[-81.576206,30.500362],[-81.5760485,30.5002183],[-81.5759778,30.4998757],[-81.5755639,30.4992118],[-81.5755358,30.4962263],[-81.5754921,30.4940396],[-81.5755447,30.4935836],[-81.5750397,30.4932971],[-81.5729904,30.4941627],[-81.5712391,30.4950954],[-81.5705729,30.4957236],[-81.5694755,30.4962812],[-81.56941,30.4963312],[-81.5689733,30.4963782],[-81.5685882,30.496619],[-81.5682406,30.4967785],[-81.5678031,30.4968029],[-81.5674258,30.496764],[-81.5671423,30.4967336],[-81.566256,30.496354],[-81.5649436,30.4959355],[-81.564293,30.4961008],[-81.5636995,30.4964147],[-81.5632687,30.4965293],[-81.5630738,30.496661],[-81.5623945,30.4972821],[-81.5617835,30.497781],[-81.5612624,30.4983292],[-81.5605811,30.4987878],[-81.559689,30.4990263],[-81.5590244,30.4991099],[-81.5581766,30.4988865],[-81.5573996,30.4986592],[-81.5567176,30.4983126],[-81.5557771,30.4981857],[-81.5549838,30.4979276],[-81.5542985,30.4977063],[-81.5533848,30.497435],[-81.5525139,30.4975992],[-81.5519928,30.497742],[-81.5511719,30.4976706],[-81.5502011,30.4977634],[-81.5493944,30.4980346],[-81.548752,30.4980275],[-81.5478787,30.4982219],[-81.5476325,30.4983115],[-81.5470711,30.4983579],[-81.546352,30.498758],[-81.5455943,30.4991718],[-81.5450881,30.4993814],[-81.5443222,30.4995741],[-81.5438079,30.4995988],[-81.5431951,30.4992043],[-81.5417767,30.4982266],[-81.5413302,30.4978999],[-81.5403916,30.4973747],[-81.5397592,30.496753],[-81.538075,30.4955394],[-81.5363499,30.4944411],[-81.5349955,30.4935758],[-81.5336336,30.4925437],[-81.532089,30.4910746],[-81.5303834,30.4892723],[-81.5294338,30.4882159],[-81.5283972,30.4873493],[-81.5272071,30.486375],[-81.5267852,30.4860835],[-81.5259674,30.4855589],[-81.5251709,30.4851966],[-81.5245862,30.4851403],[-81.5241168,30.4851016],[-81.5235006,30.4850003],[-81.522818,30.4847369],[-81.5225181,30.4845576],[-81.5216222,30.4837265],[-81.5203788,30.482441],[-81.5196471,30.4816318],[-81.5186753,30.4809092],[-81.5182351,30.480717],[-81.5170822,30.4802253],[-81.5155602,30.4796312],[-81.5145704,30.4789358],[-81.5138382,30.4780769],[-81.5131609,30.4769967],[-81.5127151,30.4761773],[-81.5118945,30.4753278],[-81.5107357,30.4748902],[-81.5096259,30.4748945],[-81.5081819,30.4752385],[-81.5068027,30.4756635],[-81.5056269,30.4761238],[-81.5047292,30.4764882],[-81.5037468,30.4765236],[-81.5028376,30.4764233],[-81.5018063,30.475976],[-81.5007356,30.4755239],[-81.4988439,30.4753931],[-81.4983442,30.4750719],[-81.4977731,30.4742628],[-81.4976542,30.4737631],[-81.4981658,30.4732397],[-81.4985703,30.4727281],[-81.4985492,30.4721398],[-81.4984344,30.4714481],[-81.4980313,30.4711583],[-81.4976898,30.4708944],[-81.4973327,30.4708013],[-81.4969291,30.4708479],[-81.4964634,30.4710807],[-81.4962305,30.4714378],[-81.4960908,30.4719811],[-81.4960442,30.4723382],[-81.4960598,30.4728505],[-81.4958735,30.473192],[-81.4955319,30.4734404],[-81.4950662,30.4734715],[-81.4946139,30.4733641],[-81.493995,30.4728971],[-81.4933741,30.47254],[-81.4923959,30.4718938],[-81.491202,30.4711051],[-81.4905544,30.4705222],[-81.4892291,30.4688048],[-81.4886641,30.4679271],[-81.4883167,30.4673148],[-81.4880588,30.4667292],[-81.4879395,30.4660348],[-81.4880738,30.4654252],[-81.4882739,30.4649327],[-81.4885542,30.4642368],[-81.4886257,30.4636816],[-81.4885127,30.4630142],[-81.4879611,30.4622132],[-81.4872449,30.4614714],[-81.4865618,30.4609145],[-81.4859611,30.4603798],[-81.4855838,30.4600338],[-81.4855205,30.4598806],[-81.4857786,30.4596811],[-81.486297,30.4595077],[-81.4867464,30.4594158],[-81.4870059,30.4592479],[-81.4870799,30.4590085],[-81.4868422,30.4585943],[-81.4863825,30.4581899],[-81.4859932,30.4578485],[-81.4857428,30.4573802],[-81.4857051,30.4568073],[-81.4856715,30.456469],[-81.4856308,30.4561218],[-81.4855395,30.4558379],[-81.4853866,30.4557166],[-81.4849291,30.4555514],[-81.4842501,30.4556216],[-81.4833508,30.4556881],[-81.4826142,30.455754],[-81.4818425,30.4559734],[-81.4806146,30.4563569],[-81.479406,30.4566772],[-81.4781897,30.4569704],[-81.4771956,30.4571816],[-81.4760241,30.4575108],[-81.4749987,30.4577671],[-81.473891,30.4581773],[-81.4729669,30.4585055],[-81.4721193,30.4587973],[-81.471549,30.4589843],[-81.4709537,30.4590677],[-81.4702981,30.4587904],[-81.4693978,30.4581213],[-81.4686513,30.4574878],[-81.4680956,30.4569394],[-81.4680098,30.456493],[-81.4678606,30.4559882],[-81.4677672,30.4553749],[-81.4680178,30.4550897],[-81.4682271,30.4549536],[-81.4686443,30.454889],[-81.4691754,30.4553202],[-81.4696325,30.4554268],[-81.4703172,30.4553206],[-81.4708416,30.4551292],[-81.4714194,30.4550595],[-81.471746,30.4546026],[-81.4720366,30.4537262],[-81.4720802,30.4527018],[-81.4717232,30.451697],[-81.4711102,30.4510089],[-81.4700417,30.4507555],[-81.4694516,30.4507441],[-81.4689685,30.4506015],[-81.4685768,30.44989],[-81.46851,30.4486405],[-81.4683424,30.4473551],[-81.4677316,30.4463557],[-81.4671927,30.4454237],[-81.4667224,30.4445365],[-81.4664492,30.4436892],[-81.4663868,30.4428863],[-81.466516,30.4423354],[-81.4669059,30.4418512],[-81.4675894,30.4416548],[-81.4686923,30.4416373],[-81.469003,30.4414963],[-81.4691086,30.4412568],[-81.468958,30.4406482],[-81.4685843,30.4397562],[-81.4681793,30.4391034],[-81.4677745,30.4383739],[-81.4672506,30.4378434],[-81.4666438,30.4373177],[-81.4659051,30.4369819],[-81.4651228,30.4366644],[-81.4644554,30.4364772],[-81.4628663,30.4351057],[-81.4626168,30.4350513],[-81.4618594,30.4354545],[-81.4606458,30.4361969],[-81.4579461,30.4378944],[-81.4569053,30.4378673],[-81.4564381,30.4376735],[-81.4561187,30.4370166],[-81.4554022,30.4354569],[-81.4551418,30.4348901],[-81.4549554,30.4347579],[-81.4529792,30.4333558],[-81.4526099,30.4317136],[-81.4522187,30.4315673],[-81.4507149,30.4315102],[-81.4499154,30.431396],[-81.448958,30.4313295],[-81.4481698,30.4312472],[-81.4476495,30.4311928],[-81.4469607,30.4310077],[-81.4457577,30.4305245],[-81.4449763,30.4303394],[-81.4444653,30.4300101],[-81.4443237,30.4299255],[-81.4439751,30.4294693],[-81.4433253,30.4289887],[-81.4427319,30.4285079],[-81.4422012,30.42786],[-81.441778,30.4273336],[-81.4414318,30.4267617],[-81.4412825,30.4261937],[-81.4411335,30.4257746],[-81.4404393,30.4253754],[-81.4393931,30.4254511],[-81.4385153,30.4251743],[-81.4375856,30.4245818],[-81.43668,30.4239352],[-81.434824,30.423453],[-81.4328014,30.4230664],[-81.4321232,30.4224353],[-81.4319949,30.4217854],[-81.4318878,30.4210358],[-81.4317807,30.4201554],[-81.4316142,30.4189776],[-81.4314833,30.4185612],[-81.4311978,30.418347],[-81.4307219,30.4180972],[-81.4300556,30.4179782],[-81.4293656,30.4178831],[-81.4289016,30.4178355],[-81.4285447,30.4177165],[-81.4282234,30.4174548],[-81.4279379,30.4171573],[-81.4276167,30.4170027],[-81.4271765,30.4169432],[-81.4268196,30.4169313],[-81.4263437,30.4169313],[-81.4259154,30.4167052],[-81.4252372,30.4163959],[-81.4248327,30.4160271],[-81.4242854,30.4155869],[-81.4229648,30.4147303],[-81.4223105,30.4140759],[-81.421097,30.4130527],[-81.4196133,30.4108659],[-81.4190946,30.4101727],[-81.4184805,30.4094392],[-81.417823,30.4088367],[-81.4166445,30.4080464],[-81.415531,30.4074679],[-81.4143487,30.4070746],[-81.4128569,30.4067454],[-81.4111482,30.4064259],[-81.4097208,30.4062499],[-81.4080833,30.4060069],[-81.4067186,30.4058713],[-81.4055443,30.4055005],[-81.4042083,30.405076],[-81.4026718,30.4046791],[-81.4012044,30.4042595],[-81.4004224,30.4040454],[-81.3981299,30.4034297],[-81.396483,30.4027602],[-81.395835179276517,30.401243933822503],[-81.393701084103483,30.398704630705218],[-81.3920264,30.3970818],[-81.390441903747742,30.397098361088727],[-81.389901626488751,30.396504056103829],[-81.39076607010314,30.395396487722884],[-81.391900652347019,30.393883711397692],[-81.39290016527616,30.391857671676455],[-81.393872664342354,30.389885659681113],[-81.394817753834801,30.386435008019436],[-81.395185712194589,30.384225780540064],[-81.395655975008026,30.378574237708285],[-81.395834044905371,30.374554817604022],[-81.396007155226371,30.369227441127638],[-81.395822384624751,30.360872348781371],[-81.395498218269353,30.356442075257597],[-81.395336135091654,30.353362494881313],[-81.395282107365759,30.35201180173382],[-81.395282107365759,30.350228886779131],[-81.395174051913955,30.34855402727624],[-81.395304214413699,30.347495157714636],[-81.394709909428812,30.342254468302365],[-81.393737410362618,30.334474475772812],[-81.393305188555431,30.330152257700835],[-81.392926994474124,30.327180732776352],[-81.392818939022334,30.325343790095761],[-81.392386717215132,30.323020597882074],[-81.392008523133839,30.320967544297886],[-81.39184643995614,30.318266158002899],[-81.391334442834903,30.314432405444965],[-81.390469999220514,30.308975605129095],[-81.390290188195266,30.306931520991586],[-81.389371716854967,30.304068051518904],[-81.388723384144171,30.301960970208814],[-81.388723384144171,30.300069999802325],[-81.388615328692367,30.298665278928933],[-81.388078428166224,30.296332484131145],[-81.387781275673774,30.295657137557399],[-81.387700234084932,30.294846721668904],[-81.387430095455429,30.294117347369255],[-81.387430095455414,30.293063806714219],[-81.387024887511174,30.291280891759527],[-81.386862804333475,30.28944394907894],[-81.386700721155776,30.288228325246195],[-81.386214471622679,30.2871477707282],[-81.385832927189227,30.285568409451756],[-81.385201214335538,30.283190318948225],[-81.385120172746682,30.282771604072501],[-81.384818799338134,30.281798498249621],[-81.384783132597221,30.280683912595677],[-81.384742611802793,30.279576344214732],[-81.384418445447395,30.278914504572462],[-81.384202334543801,30.278009540163641],[-81.384103248538665,30.277253257523956],[-81.384076234675703,30.276442841635458],[-81.383941165360952,30.275551384158106],[-81.383833109909162,30.27517319007681],[-81.383752068320305,30.274686940543713],[-81.383535957416711,30.273822496929316],[-81.383346860376065,30.273093122629671],[-81.382887624705916,30.272012568111677],[-81.382860610842968,30.27152631857858],[-81.382725541528217,30.270499791786488],[-81.382455402898714,30.269284167953742],[-81.381969153365617,30.267258128232505],[-81.381861097913813,30.266717850973507],[-81.38178005632497,30.265934448947963],[-81.381320820654821,30.264556741937518],[-81.38118575134007,30.263557229008374],[-81.381050682025318,30.262719799256928],[-81.3828213,30.2613805],[-81.3835624,30.2615001],[-81.3839303,30.2613682],[-81.3840887,30.260912],[-81.3840192,30.2603437],[-81.3840012,30.2602174],[-81.3839698,30.2599874],[-81.3839951,30.2595767],[-81.3843185,30.2592012],[-81.384623,30.259047],[-81.3851864,30.2594243],[-81.3859846,30.2605094],[-81.3865044,30.261514],[-81.3869978,30.2624782],[-81.3875794,30.2634962],[-81.3879907,30.2648982],[-81.3881611,30.266513],[-81.3884325,30.2674597],[-81.3926927,30.2674606],[-81.3926491,30.2668832],[-81.3926374,30.2655747],[-81.3924798,30.2641088],[-81.3924813,30.2623445],[-81.3943396,30.2600107],[-81.3944233,30.2585215],[-81.3943489,30.2569019],[-81.3943249,30.2557559],[-81.3942288,30.2555306],[-81.3940972,30.2542224],[-81.3944716,30.2537837],[-81.394776,30.2533857],[-81.3950931,30.2528252],[-81.3950962,30.2528072],[-81.3951509,30.2524145],[-81.3951445,30.2519497],[-81.3949047,30.2512872],[-81.3945182,30.2505664],[-81.3947811,30.2505115],[-81.3947179,30.2503898],[-81.3944389,30.2498402],[-81.3942952,30.2495383],[-81.3941122,30.2487808],[-81.3939466,30.2482218],[-81.3935036,30.2473478],[-81.3934909,30.2466169],[-81.3935712,30.2454706],[-81.3935953,30.2448524],[-81.3933208,30.2442756],[-81.3930595,30.2438929],[-81.3931774,30.243324],[-81.3934857,30.2428629],[-81.3936878,30.242217],[-81.3937718,30.2412873],[-81.3936429,30.2400784],[-81.3932427,30.2394209],[-81.3927645,30.2391516],[-81.3923108,30.2388191],[-81.3919032,30.2384232],[-81.3916446,30.237499],[-81.3917408,30.2366098],[-81.3917091,30.2359015],[-81.3913845,30.2354603],[-81.391189,30.2352939],[-81.3908054,30.2350334],[-81.3904013,30.2349353],[-81.3899867,30.2345576],[-81.3896472,30.2342743],[-81.389199,30.234032],[-81.3888973,30.2337983],[-81.3887047,30.2333702],[-81.3884429,30.2328791],[-81.3880542,30.2324607],[-81.387549,30.2323403],[-81.3869853,30.2322698],[-81.3864835,30.2318426],[-81.3860256,30.23128],[-81.3857082,30.2306763],[-81.3856229,30.2304554],[-81.3855736,30.2273874],[-81.3808994,30.2148867],[-81.3804361,30.2095051],[-81.3804391,30.2091103],[-81.380388,30.2077027],[-81.3802536,30.2064622],[-81.3802165,30.2056727],[-81.3800932,30.205276],[-81.3799583,30.2033723],[-81.3800752,30.2023567],[-81.3801245,30.201761],[-81.3801324,30.2015218],[-81.380141,30.2013909],[-81.380132,30.2001727],[-81.3801479,30.1992251],[-81.3802624,30.1985141],[-81.3802744,30.1985163],[-81.3803333,30.1981416],[-81.3805575,30.197013],[-81.3806961,30.1957401],[-81.380695,30.1951942],[-81.3808219,30.1950133],[-81.381118,30.1945996],[-81.3812013,30.1944843],[-81.3813969,30.1937753],[-81.3818892,30.1924473],[-81.3828657,30.1901072],[-81.3837378,30.1888052],[-81.3847894,30.1880034],[-81.3860691,30.1870251],[-81.3871063,30.1864625],[-81.3878708,30.1858105],[-81.3882521,30.1850288],[-81.3885545,30.1837329],[-81.3890072,30.1825584],[-81.389512,30.1812529],[-81.3897613,30.1801828],[-81.3903966,30.1792965],[-81.3905995,30.1784657],[-81.3909035,30.1776932],[-81.391409,30.1770826],[-81.3930035,30.1770372],[-81.3953022,30.1769535],[-81.3969215,30.1770073],[-81.3983632,30.1770842],[-81.398996,30.1771184],[-81.3992276,30.1774064],[-81.3996528,30.1779601],[-81.4002814,30.1784906],[-81.4009129,30.1785474],[-81.4019832,30.1785757],[-81.4027369,30.1784876],[-81.4035088,30.1784988],[-81.4044661,30.1787485],[-81.4048092,30.1788422],[-81.4049838,30.179144],[-81.4048985,30.1794962],[-81.4046587,30.1801467],[-81.4048873,30.180719],[-81.4052286,30.1815347],[-81.4051882,30.1826222],[-81.405293,30.1837319],[-81.4055518,30.1844665],[-81.4060224,30.1849975],[-81.4062822,30.1857186],[-81.4063261,30.186454],[-81.4067937,30.187355],[-81.4070874,30.1877511],[-81.4072059,30.1886893],[-81.4071237,30.1894521],[-81.4074076,30.190304],[-81.4078319,30.1910833],[-81.4080374,30.1921069],[-81.4084093,30.1930307],[-81.4091204,30.1934526],[-81.4099164,30.1936938],[-81.4108325,30.193921],[-81.411798,30.1943061],[-81.4131519,30.1950598],[-81.4141062,30.1952373],[-81.4150494,30.1952028],[-81.4163115,30.1948468],[-81.4174181,30.1942838],[-81.4185924,30.1938559],[-81.4197166,30.1933831],[-81.4204215,30.1931055],[-81.4210545,30.1931035],[-81.4220361,30.1936915],[-81.4228179,30.1939958],[-81.4236585,30.1942728],[-81.424519,30.1943106],[-81.4251489,30.1938709],[-81.4256555,30.1930887],[-81.4261362,30.1923787],[-81.4266845,30.1919257],[-81.4275021,30.1917426],[-81.4278793,30.1912992],[-81.4279415,30.1906582],[-81.4279956,30.1895074],[-81.4281658,30.1887128],[-81.4284113,30.1882021],[-81.4286374,30.1876373],[-81.4285418,30.1875271],[-81.4282438,30.1874581],[-81.4278623,30.1873692],[-81.4272459,30.1872268],[-81.4272079,30.1872111],[-81.4264699,30.1868932],[-81.4262746,30.1864629],[-81.4264666,30.1859569],[-81.427209,30.18514],[-81.4276083,30.183943],[-81.4277548,30.1835049],[-81.4277305,30.1833741],[-81.4275278,30.1822806],[-81.4273215,30.1817263],[-81.4273044,30.1816812],[-81.4269261,30.1812718],[-81.4266636,30.1809907],[-81.426064,30.1802188],[-81.4260504,30.1802188],[-81.4259361,30.1800545],[-81.425891,30.1799892],[-81.4256623,30.1794169],[-81.4257624,30.1786902],[-81.4256657,30.1781626],[-81.4254681,30.1777323],[-81.4254477,30.1777346],[-81.4249636,30.1770323],[-81.4244086,30.1765062],[-81.4242673,30.1758817],[-81.4245408,30.1751611],[-81.4247588,30.1744633],[-81.4247958,30.1741654],[-81.4248317,30.1735178],[-81.4249,30.1731791],[-81.4249566,30.1728992],[-81.4251553,30.1725331],[-81.4252481,30.1721538],[-81.425283,30.1717431],[-81.425211,30.1712244],[-81.4253564,30.1704659],[-81.425954,30.1701707],[-81.4273841,30.1708789],[-81.4286365,30.1716915],[-81.4306133,30.1737426],[-81.4316182,30.1753772],[-81.4324997,30.1759022],[-81.4333042,30.1758003],[-81.4337258,30.1754108],[-81.4346135,30.1743701],[-81.434882,30.1739586],[-81.4351664,30.1732312],[-81.4351768,30.1732312],[-81.435717,30.1731752],[-81.4362665,30.1726726],[-81.4370583,30.1717585],[-81.4376338,30.1709579],[-81.4379444,30.1709614],[-81.4382303,30.171529],[-81.4386128,30.1720872],[-81.4392571,30.1722385],[-81.4397345,30.1722166],[-81.4398389,30.1722117],[-81.4401952,30.1721789],[-81.4402689,30.1721899],[-81.4404505,30.1722187],[-81.4415223,30.172391],[-81.4415386,30.1724],[-81.4421578,30.1727566],[-81.4420117,30.1723916],[-81.4420903,30.1723914],[-81.4423088,30.1726884],[-81.443535,30.1737762],[-81.4440786,30.1736887],[-81.4446422,30.1736642],[-81.4448992,30.1740107],[-81.4451413,30.1745785],[-81.4453332,30.1750922],[-81.4457541,30.1754517],[-81.4460447,30.1754733],[-81.446362,30.1754316],[-81.4470811,30.175551],[-81.4477592,30.1755622],[-81.4479412,30.1757601],[-81.4478819,30.175986],[-81.4476739,30.1767131],[-81.4477838,30.177191],[-81.4481525,30.1777628],[-81.4483499,30.1784119],[-81.4484134,30.1791832],[-81.4483028,30.1795581],[-81.448027,30.1799381],[-81.4476366,30.180535],[-81.4474043,30.1811359],[-81.4471106,30.1814302],[-81.4465881,30.1818786],[-81.4462421,30.1823175],[-81.446328,30.1827865],[-81.4466222,30.1831239],[-81.447068,30.1835691],[-81.4472243,30.1838122],[-81.4473534,30.1843126],[-81.4474311,30.1848312],[-81.447378,30.1851427],[-81.4470519,30.1854778],[-81.4467002,30.18607],[-81.446418,30.1864771],[-81.4462806,30.1869017],[-81.4462874,30.1877499],[-81.4464347,30.1883225],[-81.4466234,30.1892152],[-81.446505,30.1898699],[-81.4462214,30.1903401],[-81.4460275,30.1908822],[-81.4460146,30.1916313],[-81.4463531,30.1921174],[-81.4468486,30.1927158],[-81.4472302,30.1931748],[-81.447648,30.1932455],[-81.4479775,30.1931722],[-81.4483715,30.1929363],[-81.4488612,30.1926819],[-81.4491844,30.1926492],[-81.4497475,30.1926924],[-81.4501779,30.1925375],[-81.4505547,30.1922971],[-81.4508266,30.1922691],[-81.4512459,30.1928181],[-81.4515129,30.1934805],[-81.4517537,30.1942557],[-81.4520495,30.1944668],[-81.4521225,30.1943921],[-81.4521952,30.1943174],[-81.4524088,30.1938248],[-81.4531355,30.19315],[-81.4537179,30.1923539],[-81.4545824,30.1919335],[-81.4555881,30.1919458],[-81.4566315,30.1920279],[-81.4573088,30.1920391],[-81.4578923,30.1919333],[-81.4583432,30.1917828],[-81.4585086,30.1916062],[-81.4586725,30.190965],[-81.4589378,30.1900796],[-81.459494,30.1894731],[-81.4599261,30.189273],[-81.4606521,30.1886884],[-81.460942,30.1881279],[-81.4614723,30.1874041],[-81.4622411,30.1862373],[-81.4625652,30.1860601],[-81.4628445,30.1859554],[-81.4632343,30.1855163],[-81.4632806,30.1852274],[-81.4635454,30.1845722],[-81.4635845,30.1835749],[-81.4634718,30.182718],[-81.4633859,30.1823303],[-81.4636444,30.1816616],[-81.4640505,30.1814029],[-81.464717,30.1812788],[-81.4653144,30.1809653],[-81.4661537,30.1803983],[-81.4668045,30.1797778],[-81.4674238,30.1790807],[-81.4678382,30.1787048],[-81.4687716,30.1782051],[-81.4691399,30.1780459],[-81.469333,30.1785325],[-81.4696263,30.1790413],[-81.4699858,30.179216],[-81.4707015,30.1791548],[-81.4714057,30.1788995],[-81.471882,30.1785955],[-81.472182,30.1783373],[-81.4727346,30.178033],[-81.4735333,30.1778135],[-81.4741415,30.1777888],[-81.4746919,30.1778364],[-81.4748488,30.1780073],[-81.4749651,30.1783633],[-81.4751836,30.178913],[-81.4752428,30.1793369],[-81.4755627,30.1797193],[-81.4761616,30.1799969],[-81.4764135,30.180208],[-81.4767662,30.1804369],[-81.47642,30.1808893],[-81.4759206,30.1817755],[-81.4753169,30.1828155],[-81.4748358,30.183679],[-81.4744236,30.1845739],[-81.4744706,30.1850205],[-81.4751764,30.1853924],[-81.4758358,30.1852095],[-81.4763647,30.1855731],[-81.4766429,30.1865151],[-81.4767224,30.1869119],[-81.4766843,30.1876295],[-81.4766865,30.188965],[-81.4763648,30.189643],[-81.4758901,30.1903712],[-81.4755621,30.1910808],[-81.4752573,30.1920339],[-81.4752313,30.1930447],[-81.4750414,30.1937944],[-81.4750237,30.1944938],[-81.4757169,30.1955923],[-81.476419,30.1964516],[-81.4770832,30.1973832],[-81.4777409,30.1981884],[-81.4783987,30.1991471],[-81.4790668,30.2004035],[-81.4794209,30.201264],[-81.479526,30.2021751],[-81.4794653,30.2027078],[-81.4795661,30.2036233],[-81.4796727,30.2044487],[-81.4799083,30.2052103],[-81.479998,30.2058372],[-81.4799491,30.20646],[-81.4799621,30.207218],[-81.4799611,30.207403],[-81.4803742,30.2080332],[-81.4807506,30.2084379],[-81.481383,30.209162],[-81.4820984,30.2100438],[-81.4825886,30.2105563],[-81.4831075,30.211308],[-81.4834085,30.2117084],[-81.4839597,30.2116793],[-81.4841507,30.2115026],[-81.4842939,30.2109742],[-81.4844405,30.2100667],[-81.484467,30.2091191],[-81.484393,30.2079959],[-81.4845024,30.2068719],[-81.4844041,30.2056992],[-81.4844207,30.2044447],[-81.4844444,30.2030595],[-81.4836587,30.1998588],[-81.4832957,30.19852],[-81.4832554,30.1963904],[-81.4834244,30.1941699],[-81.4839467,30.1920337],[-81.4848116,30.1915207],[-81.485422,30.1911484],[-81.4861904,30.1908072],[-81.4867175,30.1905931],[-81.4872693,30.1903926],[-81.4875528,30.1905269],[-81.4875967,30.1906801],[-81.4875695,30.1909013],[-81.4876611,30.1913026],[-81.4876595,30.1915643],[-81.4877961,30.1919563],[-81.48792,30.1922581],[-81.4881895,30.1926632],[-81.4884156,30.1936821],[-81.488353,30.1944088],[-81.4883438,30.1947924],[-81.4883247,30.1955324],[-81.4884162,30.1960374],[-81.4881986,30.1970174],[-81.4880218,30.1979611],[-81.4877599,30.1990991],[-81.4877216,30.1999475],[-81.4877714,30.2007685],[-81.4877249,30.2019373],[-81.4880615,30.2027121],[-81.4881262,30.2033346],[-81.4882347,30.204002],[-81.488579,30.2044835],[-81.4888321,30.2045953],[-81.4890917,30.2045628],[-81.4893268,30.2044446],[-81.4898213,30.2041855],[-81.4898818,30.203883],[-81.4897143,30.2034279],[-81.4896671,30.2029453],[-81.4898546,30.2024437],[-81.4905078,30.2023736],[-81.4909054,30.2024218],[-81.4911858,30.2022132],[-81.4915186,30.201675],[-81.4917918,30.2007354],[-81.4918917,30.2000628],[-81.4924614,30.1984137],[-81.4929302,30.1975682],[-81.4931721,30.1973281],[-81.4935125,30.1974848],[-81.4936376,30.1977099],[-81.49378,30.1981967],[-81.4938649,30.1986837],[-81.4939163,30.1993558],[-81.4940573,30.1998922],[-81.4941947,30.2001759],[-81.4944094,30.200324],[-81.4946189,30.2001337],[-81.49464,30.1998945],[-81.4947565,30.1995602],[-81.4951209,30.1991256],[-81.4955328,30.1990474],[-81.4957087,30.1992182],[-81.4960785,30.1997402],[-81.4963601,30.2001542],[-81.4966858,30.2005004],[-81.4967699,30.2010867],[-81.4969631,30.2016048],[-81.4971541,30.2022087],[-81.4973479,30.2025103],[-81.4975939,30.2026402],[-81.4977396,30.2026171],[-81.4979049,30.2025623],[-81.4981023,30.2023676],[-81.4983072,30.2021096],[-81.4984737,30.2018518],[-81.4986155,30.2015038],[-81.4988061,30.2013858],[-81.4990775,30.2015742],[-81.4991554,30.2020928],[-81.4991128,30.202657],[-81.4992661,30.2033152],[-81.4994206,30.2038876],[-81.499605,30.2045908],[-81.4997767,30.205285],[-81.5002274,30.2059872],[-81.5007017,30.2056018],[-81.5013475,30.2049],[-81.5017766,30.2041133],[-81.5017039,30.2032111],[-81.5016463,30.2020382],[-81.5021375,30.2008271],[-81.5028523,30.2004724],[-81.5036023,30.2003026],[-81.5043529,30.1997943],[-81.5049737,30.1994806],[-81.5057044,30.1992702],[-81.5062992,30.1992815],[-81.507279,30.199219],[-81.5078248,30.1989101],[-81.508288,30.1990166],[-81.5082796,30.1992919],[-81.5081579,30.1995495],[-81.5079227,30.1998302],[-81.5076545,30.2000704],[-81.5073833,30.2004956],[-81.5071901,30.2009926],[-81.5070388,30.2017513],[-81.5069531,30.2026359],[-81.5071206,30.2032128],[-81.5075733,30.203739],[-81.507717,30.2043476],[-81.5077869,30.2051189],[-81.507974,30.2053979],[-81.508067,30.2055419],[-81.5085328,30.2057883],[-81.5091301,30.2059529],[-81.5100112,30.2063827],[-81.5101458,30.2068514],[-81.5103987,30.2072204],[-81.5111228,30.2076868],[-81.5116426,30.2077344],[-81.5123539,30.2075331],[-81.5128457,30.2074545],[-81.5132186,30.2074214],[-81.5134323,30.2079981],[-81.5131203,30.208992],[-81.5129546,30.209665],[-81.5133086,30.210363],[-81.5136446,30.2103661],[-81.5139433,30.2097468],[-81.5144348,30.2089688],[-81.5149443,30.2087457],[-81.5152077,30.2089387],[-81.5160864,30.2096346],[-81.5169136,30.2102405],[-81.5177968,30.210801],[-81.5182872,30.211327],[-81.5185139,30.2120165],[-81.5186425,30.2128371],[-81.5191079,30.2137783],[-81.5198784,30.2147047],[-81.5202236,30.2156329],[-81.5203358,30.2166566],[-81.5206793,30.2175036],[-81.5211227,30.2181515],[-81.521161,30.2189004],[-81.5213146,30.2200729],[-81.5219228,30.2204901],[-81.522494,30.2205645],[-81.5232238,30.2203315],[-81.5239545,30.2204865],[-81.524623,30.2206959],[-81.5254081,30.2207514],[-81.5260766,30.2209743],[-81.5266829,30.2212742],[-81.5270503,30.2212457],[-81.5273401,30.2211543],[-81.5272675,30.2206266],[-81.527363,30.2195975],[-81.5276791,30.218175],[-81.5278722,30.2169379],[-81.527714,30.2155127],[-81.5276143,30.214173],[-81.5277457,30.2129948],[-81.5279104,30.2115548],[-81.5278138,30.2097143],[-81.5277654,30.2076886],[-81.5281323,30.2062252],[-81.528698,30.2052799],[-81.5293467,30.204799],[-81.5301539,30.2046243],[-81.530629,30.2046539],[-81.5311952,30.2048321],[-81.5320545,30.2051174],[-81.532947,30.2051589],[-81.5340037,30.2050824],[-81.5349358,30.2051914],[-81.5356253,30.2048141],[-81.5358611,30.2042401],[-81.5358866,30.2035451],[-81.536317,30.2020815],[-81.5360826,30.2017259],[-81.5365116,30.2009165],[-81.5372189,30.2001737],[-81.5373322,30.1998213],[-81.53722,30.1995329],[-81.5370644,30.1986222],[-81.5370767,30.197837],[-81.5372652,30.1974617],[-81.5377397,30.1970763],[-81.5379976,30.1969895],[-81.5383028,30.1970514],[-81.5385562,30.1971316],[-81.5386781,30.1971717],[-81.5392742,30.1975934],[-81.5397754,30.1980651],[-81.5402343,30.198573],[-81.5406715,30.1993157],[-81.5410021,30.2001085],[-81.541308,30.2009013],[-81.5415025,30.2012029],[-81.5415879,30.2012657],[-81.5417848,30.2014137],[-81.5421565,30.201331],[-81.5425832,30.2011217],[-81.5432211,30.2010468],[-81.5434544,30.2013843],[-81.5434232,30.2017364],[-81.5433342,30.2020796],[-81.5434804,30.202449],[-81.5437265,30.202809],[-81.5441234,30.2030735],[-81.5450771,30.2036246],[-81.5453684,30.2040023],[-81.5453479,30.2042822],[-81.5451687,30.204874],[-81.5451601,30.2054471],[-81.5451586,30.2057494],[-81.5453416,30.2060329],[-81.5459779,30.2066078],[-81.5465902,30.2072369],[-81.5470701,30.2078305],[-81.5474837,30.2083612],[-81.5476722,30.2086311],[-81.5476878,30.208798],[-81.5476204,30.2092901],[-81.5476578,30.2099487],[-81.547895,30.2108592],[-81.5481971,30.2111241],[-81.5487153,30.2110633],[-81.549176,30.2109892],[-81.5498461,30.2109187],[-81.5503686,30.2111105],[-81.5506084,30.2114885],[-81.5506555,30.2119711],[-81.550459,30.2126533],[-81.550321,30.2130509],[-81.5502571,30.2134347],[-81.5504458,30.2136054],[-81.5505022,30.2136547],[-81.5513554,30.2135745],[-81.5517856,30.2139156],[-81.5517192,30.2148092],[-81.5517976,30.2166994],[-81.5517275,30.2184594],[-81.5520099,30.2187245],[-81.5540719,30.2207011],[-81.5576712,30.2206136],[-81.5609928,30.2205002],[-81.56655,30.2205846],[-81.5697461,30.2205572],[-81.572286,30.2206679],[-81.576083,30.2206648],[-81.5803274,30.2208311],[-81.5834401,30.2208128],[-81.5857816,30.2208023],[-81.586297,30.2216348],[-81.5851657,30.2231153],[-81.5844091,30.2243279],[-81.5838887,30.2252822],[-81.5833014,30.2260248],[-81.5826608,30.2269887],[-81.5820767,30.2279434],[-81.5817796,30.2286576],[-81.5818874,30.2293745],[-81.5822658,30.2303294],[-81.5829377,30.2314183],[-81.5835072,30.232061],[-81.5840603,30.2325684],[-81.5846372,30.2329719],[-81.5855016,30.2335049],[-81.5862566,30.2339753],[-81.5868837,30.2350103],[-81.5877613,30.2359494],[-81.5890814,30.2368052],[-81.5905909,30.2373444],[-81.5920371,30.2378252],[-81.5932245,30.2383703],[-81.5944225,30.23878],[-81.5955174,30.2391179],[-81.596247,30.2392364],[-81.5964063,30.2392672],[-81.5971303,30.2393813],[-81.5982653,30.2398544],[-81.599333,30.2400751],[-81.6005034,30.2403856],[-81.6018093,30.2408037],[-81.6025156,30.2410441],[-81.6030809,30.2414431],[-81.603884,30.2423914],[-81.6047294,30.2439712],[-81.6053404,30.2448302],[-81.6058811,30.2453466],[-81.6071713,30.2463017],[-81.6082379,30.2478308],[-81.6092422,30.2493963],[-81.6099178,30.2503497],[-81.6140621,30.256187],[-81.6149541,30.2574416],[-81.6186297,30.2626176],[-81.6210518,30.2658638],[-81.6235783,30.2692493],[-81.6238642,30.2699699],[-81.62457,30.2710223],[-81.6242867,30.2725713],[-81.624864,30.2735882],[-81.6257527,30.2745315],[-81.6261737,30.2749807],[-81.6266339,30.275565],[-81.6270438,30.2762038],[-81.6272173,30.2766136],[-81.6270304,30.2770566],[-81.6269444,30.2775353],[-81.6272771,30.2778902],[-81.6278615,30.2781851],[-81.6284775,30.2783852],[-81.6289315,30.2789651],[-81.6294549,30.2795131],[-81.6300257,30.2805661],[-81.6296769,30.2805903],[-81.6292892,30.2803846],[-81.6288457,30.2804905],[-81.6288041,30.2808968],[-81.6290803,30.2813963],[-81.630225,30.2830332],[-81.6320603,30.285524],[-81.6336281,30.2877498],[-81.6332299,30.2879277],[-81.6324676,30.2884909],[-81.6316555,30.2889347],[-81.6316273,30.2889506],[-81.6311676,30.2894266],[-81.6306982,30.2902049],[-81.6298408,30.29094],[-81.6287657,30.2912159],[-81.6278344,30.2912249],[-81.6269094,30.2911481],[-81.6262048,30.2911289],[-81.6259522,30.2912068],[-81.6260705,30.2918289],[-81.626342,30.2926759],[-81.6266266,30.2935408],[-81.6270809,30.2941522],[-81.6278081,30.2948526],[-81.6283679,30.2951838],[-81.6287114,30.2953491],[-81.6283836,30.2956665],[-81.62736,30.2961226],[-81.6266061,30.2962436],[-81.625876,30.2959448],[-81.625039,30.2958179],[-81.6246211,30.2959688],[-81.6243854,30.295794],[-81.6239932,30.295859],[-81.6236259,30.295951],[-81.6232404,30.2960837],[-81.6229949,30.2963149],[-81.6228389,30.2966767],[-81.6225897,30.2973546],[-81.6223536,30.2979468],[-81.6217447,30.2988972],[-81.6208887,30.2998623],[-81.619766,30.3006076],[-81.6183253,30.3013273],[-81.6175142,30.3021704],[-81.6172798,30.3031371],[-81.6170201,30.3041715],[-81.6166657,30.3052425],[-81.61671,30.3060816],[-81.6171887,30.3067064],[-81.6176862,30.3071463],[-81.619145,30.3082178],[-81.6196065,30.3080125],[-81.6206022,30.3077371],[-81.6215528,30.3073039],[-81.6230671,30.3067643],[-81.6235555,30.306595],[-81.6247235,30.3065308],[-81.6249775,30.3067146],[-81.6250751,30.30703],[-81.6251168,30.3076163],[-81.6251023,30.3082571],[-81.6252068,30.3088386],[-81.6254182,30.3091264],[-81.6255846,30.3092249],[-81.6257934,30.3092374],[-81.6259064,30.309176],[-81.6259446,30.3091555],[-81.6262032,30.3089331],[-81.6262667,30.3088381],[-81.6263409,30.3087069],[-81.6265243,30.3086248],[-81.6271084,30.308834],[-81.6274845,30.3090939],[-81.6280705,30.3095062],[-81.6286018,30.3102617],[-81.6287062,30.3106763],[-81.6288297,30.3112803],[-81.632186,30.3109032],[-81.6327018,30.3101336],[-81.6332469,30.3091835],[-81.6338243,30.3084543],[-81.6343026,30.3079962],[-81.6347965,30.3079171],[-81.6352655,30.307978],[-81.6357983,30.3079393],[-81.6363971,30.3076116],[-81.637131,30.3073147],[-81.6379212,30.3069183],[-81.6382506,30.3065016],[-81.6385188,30.3068162],[-81.6385549,30.3069671],[-81.638626,30.3072082],[-81.6386276,30.3075105],[-81.6386313,30.3080248],[-81.6385657,30.3086907],[-81.6385687,30.3091463],[-81.6387126,30.3097796],[-81.639133,30.3101114],[-81.6396583,30.3104721],[-81.6400785,30.3107114],[-81.6403255,30.3111636],[-81.6405029,30.3116478],[-81.6405758,30.3121618],[-81.6409297,30.3129158],[-81.6410433,30.3135808],[-81.6410226,30.3138538],[-81.6407109,30.3141577],[-81.6402591,30.3144013],[-81.6400162,30.3145852],[-81.639705,30.3150086],[-81.639639,30.3155548],[-81.639538,30.3161284],[-81.6391243,30.3168884],[-81.639095,30.3177345],[-81.6392064,30.3187627],[-81.6392079,30.3189454],[-81.6396602,30.3199178],[-81.6399466,30.321076],[-81.640258,30.3217287],[-81.6435549,30.3225111],[-81.6440875,30.3228243],[-81.6442565,30.3230649],[-81.6444551,30.3236211],[-81.6445132,30.3239593],[-81.6445108,30.3239841],[-81.644105,30.3243583],[-81.6435977,30.3252226],[-81.6431718,30.3269076],[-81.6430634,30.3286182],[-81.6431242,30.3301113],[-81.643443,30.3312919],[-81.6437926,30.332364],[-81.6442818,30.3334941],[-81.6447668,30.3348318],[-81.6452298,30.3367245],[-81.6452345,30.3384209],[-81.6452805,30.3395397],[-81.6452287,30.3411665],[-81.6453291,30.3428805],[-81.6453071,30.3443335],[-81.6453325,30.3461742],[-81.6454807,30.3484926],[-81.6453763,30.3507175],[-81.6453761,30.3516921],[-81.6457189,30.3516994],[-81.6461497,30.351598],[-81.6469772,30.3511924],[-81.6480996,30.3511011],[-81.6491845,30.3511769],[-81.6506578,30.3516298],[-81.6524129,30.352352],[-81.653449,30.3527213],[-81.6544339,30.3530142],[-81.6551446,30.3530512],[-81.6558494,30.353165],[-81.6562318,30.353506],[-81.6562736,30.3539344],[-81.6558614,30.3548298],[-81.6555651,30.3560721],[-81.6561329,30.3566287],[-81.6586825,30.3565663],[-81.6611488,30.3565493],[-81.6632968,30.3564076],[-81.664832,30.3565081],[-81.6665752,30.3564135],[-81.6686708,30.3559696],[-81.6704214,30.3559967],[-81.6723417,30.3558335],[-81.6745907,30.3556234],[-81.6770239,30.3554754],[-81.6790213,30.3553794],[-81.6816558,30.3558439],[-81.6837085,30.3564423],[-81.6842881,30.355961],[-81.6848322,30.3548076],[-81.6850074,30.3536697],[-81.6851177,30.352284],[-81.6850119,30.3499248],[-81.6848278,30.3481977],[-81.6848219,30.3473946],[-81.6844118,30.3467696],[-81.6839085,30.3464429],[-81.6828256,30.3457131],[-81.6825052,30.3452184],[-81.682201,30.3443989],[-81.6818206,30.3435075],[-81.6814378,30.3431982],[-81.682448,30.3425522],[-81.6832035,30.3419346],[-81.6842244,30.3410495],[-81.6853661,30.3403329],[-81.6866164,30.3395818],[-81.6876913,30.3391205],[-81.6893752,30.338868],[-81.6908264,30.3387656],[-81.6915191,30.3388882],[-81.6925502,30.33951],[-81.6933857,30.3402004],[-81.6943808,30.3410185],[-81.6950543,30.3411774],[-81.6956497,30.3411561],[-81.6962234,30.3414599],[-81.697293,30.3421851],[-81.69832,30.3430504],[-81.6991945,30.3437767],[-81.700591,30.3448791],[-81.7015311,30.3459434],[-81.7021956,30.3466257],[-81.7024839,30.3470663],[-81.702626,30.3473904],[-81.7028005,30.3477775],[-81.7032481,30.3483571],[-81.7038607,30.348814],[-81.7047778,30.3494362],[-81.7056455,30.3500497],[-81.7057095,30.3500538],[-81.7061089,30.3501103],[-81.706519,30.3499367],[-81.7068155,30.3497591],[-81.707187,30.349333],[-81.7078661,30.3486796],[-81.7090887,30.3477029],[-81.7100302,30.3472376],[-81.7120087,30.3472403],[-81.7144247,30.3472768],[-81.7161367,30.3473351],[-81.7161075,30.3459231],[-81.7160393,30.3445428],[-81.7159682,30.3434874],[-81.7159781,30.3422556],[-81.716312,30.341225],[-81.7168337,30.3398844],[-81.7175641,30.338387],[-81.7181343,30.3373551],[-81.7185419,30.3367212],[-81.7204035,30.3365531],[-81.7226532,30.3363827],[-81.7243209,30.336378],[-81.7263309,30.3364481],[-81.727358,30.3364604],[-81.7278115,30.3361105],[-81.7284559,30.3358633],[-81.7291942,30.3361615],[-81.7300391,30.3363778],[-81.7309144,30.3364],[-81.731478,30.3362931],[-81.731876,30.3361239],[-81.7325899,30.3358672],[-81.733405,30.335619],[-81.7350496,30.3350458],[-81.7359412,30.3347205],[-81.7373223,30.3346856],[-81.7384728,30.3350356],[-81.7397425,30.335281],[-81.741083,30.3356479],[-81.7414304,30.3359235],[-81.7415105,30.3359884],[-81.7436636,30.3356829],[-81.7451763,30.3354713],[-81.7514614,30.3356519],[-81.7553863,30.3357782],[-81.7587337,30.3358535],[-81.7611628,30.3359703],[-81.7610304,30.3368057],[-81.7608286,30.3377318],[-81.7606054,30.3391409],[-81.7604292,30.3409082],[-81.760588,30.3425632],[-81.7611567,30.3430381],[-81.7625695,30.3429713],[-81.7638563,30.3428509],[-81.7645613,30.3431627],[-81.7647382,30.3437482],[-81.765189,30.3445712],[-81.7658664,30.3444995],[-81.7665301,30.3443062],[-81.7672476,30.3444238],[-81.7678806,30.3444652],[-81.7680913,30.3444775],[-81.7684513,30.344313],[-81.7686866,30.3440589],[-81.7692621,30.3434419],[-81.7700903,30.3422865],[-81.7709939,30.3412299],[-81.7718317,30.3404309],[-81.7721383,30.3400591],[-81.7727641,30.3398072],[-81.7740372,30.3404224],[-81.7749235,30.3410081],[-81.776046,30.3419084],[-81.7774104,30.3427936],[-81.7782384,30.3432354],[-81.7794784,30.3437694],[-81.780897,30.3442753],[-81.7818541,30.3443463],[-81.7855285,30.3439227],[-81.7889859,30.3434868],[-81.7920848,30.3432605],[-81.7948052,30.3432395],[-81.7961204,30.3429315],[-81.7961298,30.3428795],[-81.7964456,30.3409285],[-81.7967588,30.3397445],[-81.7973075,30.3385342],[-81.7977645,30.3377915],[-81.7978589,30.3369652],[-81.7982666,30.3357355],[-81.7984934,30.3348317],[-81.7983953,30.3343992],[-81.798122,30.3335797],[-81.7984383,30.3328107],[-81.7989711,30.3320901],[-81.7992831,30.3307572],[-81.7996965,30.3301456],[-81.8020016,30.3306639],[-81.8043305,30.3308616],[-81.8066035,30.3312718],[-81.8065693,30.3309042],[-81.8063382,30.3283768],[-81.8064859,30.3264358],[-81.8076223,30.3258873],[-81.8090772,30.3254813],[-81.8115941,30.324807],[-81.8138673,30.3245402],[-81.8151213,30.3244466],[-81.8156854,30.3243935],[-81.8158725,30.3241036],[-81.8158095,30.3234046],[-81.8167545,30.3241883],[-81.8172265,30.3244651],[-81.8176911,30.3247554],[-81.8183527,30.324995],[-81.8194969,30.3253488],[-81.8204042,30.3254784],[-81.8213258,30.3257569],[-81.8225796,30.3264168],[-81.8234181,30.3272597],[-81.8240666,30.3283024],[-81.8247402,30.3292005],[-81.8250354,30.3296318],[-81.8253424,30.3299141],[-81.825631,30.3301875],[-81.8263064,30.3306795],[-81.8269007,30.3312623],[-81.8274784,30.3320437],[-81.8282053,30.3332438],[-81.8286989,30.334531],[-81.8290074,30.335842],[-81.8292767,30.3368916],[-81.8302461,30.3382344],[-81.8310864,30.3387299],[-81.8321257,30.3394114],[-81.8327669,30.3401878],[-81.8332411,30.3407578],[-81.8337866,30.3414763],[-81.8342428,30.3422178],[-81.8349125,30.3433189],[-81.8355055,30.3438204],[-81.8363309,30.3446048],[-81.8369377,30.3451964],[-81.8373871,30.3457801],[-81.837869,30.3465485],[-81.8382683,30.3472408],[-81.8388161,30.3481487],[-81.839259,30.3488496],[-81.8400601,30.3498281],[-81.8407575,30.3504688],[-81.8413204,30.3510156],[-81.8421259,30.3518226],[-81.842639,30.3524329],[-81.8428721,30.3529592],[-81.8430286,30.3535132],[-81.8431793,30.354013],[-81.8433841,30.354314],[-81.8436481,30.3547274],[-81.8437432,30.3554351],[-81.8437387,30.3563465],[-81.8436967,30.3573665],[-81.8435267,30.3581616],[-81.8429925,30.3587088],[-81.842738,30.3592857],[-81.8426703,30.3595839],[-81.8427946,30.3600433],[-81.8433419,30.3609196],[-81.8437207,30.3614901],[-81.8442159,30.3623532],[-81.8446988,30.3631848],[-81.8449923,30.3640356],[-81.8451153,30.3649191],[-81.8451233,30.3658891],[-81.8452681,30.3665379],[-81.8454815,30.3669606],[-81.8458307,30.3669899],[-81.8462249,30.3671092],[-81.8466972,30.3674716],[-81.8470161,30.3681002],[-81.8472864,30.368451],[-81.847493,30.3692172],[-81.8475114,30.369262],[-81.8478524,30.3697381],[-81.8483524,30.3703619],[-81.8489275,30.370868],[-81.8495932,30.3713149],[-81.8503914,30.3713277],[-81.8510972,30.3714856],[-81.851942,30.3714677],[-81.8530781,30.3712476],[-81.8537682,30.3711703],[-81.8545653,30.3712714],[-81.8553207,30.3715618],[-81.855612,30.3721554],[-81.8558612,30.3723839],[-81.856294,30.3726427],[-81.8567921,30.3729643],[-81.8573526,30.3732043],[-81.8577428,30.3736033],[-81.8578742,30.3741348],[-81.8578474,30.3746358],[-81.8579037,30.3749468],[-81.8580703,30.3754375],[-81.8579878,30.3758576],[-81.8576705,30.3762838],[-81.8575527,30.3769388],[-81.8574004,30.3773774],[-81.8570906,30.3778757],[-81.8564985,30.3781593],[-81.8558754,30.378389],[-81.8551985,30.378971],[-81.8544793,30.3801262],[-81.8539567,30.381253],[-81.8538385,30.381908],[-81.8541126,30.3824251],[-81.8546007,30.3828956],[-81.8553234,30.3834233],[-81.8558268,30.3840381],[-81.8561583,30.3845774],[-81.8564585,30.3852025],[-81.8567156,30.3854851],[-81.8571959,30.3857391],[-81.8579463,30.3860004],[-81.8585643,30.3862219],[-81.8591143,30.3865567],[-81.8593044,30.3870156],[-81.8592614,30.3875663],[-81.8593035,30.3883331],[-81.8595271,30.388864],[-81.8598,30.3893495],[-81.8599671,30.3899665],[-81.8598378,30.3906937],[-81.8593905,30.3913148],[-81.8587363,30.3921628],[-81.8583268,30.3928017],[-81.8583831,30.3931036],[-81.8587912,30.3933445],[-81.8589653,30.3935374],[-81.8588857,30.3937409],[-81.8587432,30.3940306],[-81.8588811,30.3942914],[-81.8591043,30.3944479],[-81.8595956,30.3946431],[-81.8606049,30.3947854],[-81.8619177,30.3947767],[-81.8633754,30.3947897],[-81.8643393,30.3949051],[-81.8650548,30.3951936],[-81.8659055,30.3957474],[-81.8664717,30.3963573],[-81.8664303,30.3970118],[-81.8660677,30.3973977],[-81.8658228,30.397661],[-81.8656621,30.397838],[-81.8652605,30.3985626],[-81.865495,30.3994408],[-81.8657761,30.4000345],[-81.866357,30.40036],[-81.8671366,30.4007428],[-81.8675213,30.4010967],[-81.8677148,30.4017858],[-81.8678893,30.4024613],[-81.8682757,30.4033386],[-81.8692549,30.4039637],[-81.8700281,30.4039901],[-81.8708081,30.404012],[-81.8721981,30.4041561],[-81.8735195,30.4043278],[-81.874215,30.4044043],[-81.8751126,30.4046645],[-81.8758573,30.4048445],[-81.8768886,30.4051489],[-81.8777721,30.4056122],[-81.8783563,30.4060053],[-81.8788137,30.4066835],[-81.878837,30.4075135],[-81.8789289,30.4089476],[-81.8787973,30.4103066],[-81.8798206,30.4107959],[-81.8806358,30.4106371],[-81.881349,30.4102803],[-81.8824347,30.4097767],[-81.8835483,30.4090834],[-81.8849233,30.4078784],[-81.8862525,30.4065655],[-81.8870283,30.4051616],[-81.8874626,30.4034352],[-81.8877442,30.402373],[-81.8881628,30.4017566],[-81.8894384,30.4009718],[-81.8910754,30.4004779],[-81.8920402,30.3996818],[-81.8932988,30.3986851],[-81.894718,30.3980663],[-81.8962336,30.3981777],[-81.8975691,30.3984483],[-81.8987577,30.3986883],[-81.8992785,30.3990772],[-81.8994816,30.4000143],[-81.8995186,30.4012141],[-81.8996626,30.4027246],[-81.8994715,30.4042058],[-81.8985682,30.4046406],[-81.8977413,30.4047591],[-81.8968598,30.4050494],[-81.8961796,30.4054826],[-81.8955944,30.4060191],[-81.8953356,30.4066795],[-81.8952059,30.4074745],[-81.894965,30.4084191],[-81.8944265,30.4093071],[-81.8937269,30.4098217],[-81.8929049,30.4102018],[-81.8919066,30.4106147],[-81.8907775,30.4114526],[-81.8897313,30.4120282],[-81.8888613,30.4125304],[-81.8884355,30.4131198],[-81.8882841,30.4134322],[-81.8882568,30.4136444],[-81.8883652,30.4142979],[-81.8885152,30.4148428],[-81.888365,30.4155747],[-81.8879312,30.4163131],[-81.8870918,30.4171489],[-81.8858035,30.418236],[-81.884753,30.4186402],[-81.8836103,30.4181426],[-81.8823582,30.4173344],[-81.8811495,30.4170764],[-81.8798274,30.4171349],[-81.8786581,30.4175714],[-81.8779106,30.4178562],[-81.8770101,30.4178261],[-81.876486,30.4175409],[-81.8758119,30.4167468],[-81.875304,30.4167412],[-81.8740377,30.4171377],[-81.8735416,30.4174839],[-81.8729775,30.4179253],[-81.8725136,30.4182984],[-81.8721142,30.4187929],[-81.87208,30.4190096],[-81.8723483,30.4195809],[-81.8723816,30.4201807],[-81.8722604,30.4205605],[-81.8715303,30.4210075],[-81.870469,30.4216778],[-81.8692673,30.4223581],[-81.8678975,30.4232515],[-81.8669006,30.423989],[-81.8663355,30.4248455],[-81.8661147,30.4258215],[-81.8662461,30.4265876],[-81.8660491,30.4270176],[-81.8653911,30.4275588],[-81.8643112,30.4278683],[-81.8625547,30.427907],[-81.8611714,30.4282364],[-81.8605576,30.4287729],[-81.8596369,30.4296136],[-81.8586392,30.4303556],[-81.8578804,30.430514],[-81.8570157,30.4303482],[-81.8557329,30.429752],[-81.8543427,30.4292152],[-81.853125,30.4291736],[-81.8522134,30.4297209],[-81.8516858,30.4305275],[-81.851445,30.4314585],[-81.8511772,30.4327325],[-81.8508,30.4334072],[-81.8497484,30.4339465],[-81.8488191,30.4345616],[-81.8480444,30.4353698],[-81.8475593,30.4356842],[-81.8458719,30.4351763],[-81.8452597,30.4350059],[-81.8436697,30.4345634],[-81.8416829,30.4339897],[-81.83969,30.4334115],[-81.8375622,30.4327033],[-81.835555,30.4319672],[-81.8347367,30.4319334],[-81.8330625,30.4320634],[-81.8304273,30.4321398],[-81.8277167,30.4324232],[-81.8258159,30.4316051],[-81.8244984,30.4307156],[-81.8236342,30.4301526],[-81.8226705,30.430127],[-81.8218194,30.4309669],[-81.8205369,30.433614],[-81.8198801,30.4347562],[-81.8193125,30.4350059],[-81.8191663,30.4350702],[-81.8186381,30.4357555],[-81.8184667,30.4367549],[-81.8180479,30.4373157],[-81.8165496,30.4385692],[-81.8158043,30.4390174],[-81.8155854,30.4389772],[-81.8149853,30.4389572],[-81.8139165,30.439311],[-81.8132267,30.4392294],[-81.8125814,30.4396003],[-81.8125265,30.4399415],[-81.8124553,30.4402752],[-81.8116765,30.4410021],[-81.8109718,30.4411134],[-81.8102894,30.4409131],[-81.8099853,30.4405793],[-81.8092955,30.4398747],[-81.8086111,30.4399265],[-81.8082823,30.439481],[-81.8073299,30.4385618],[-81.8062618,30.4385099],[-81.8052497,30.4384505],[-81.8047735,30.4382931],[-81.8041006,30.4383411],[-81.8037696,30.4384951],[-81.8029314,30.4387473],[-81.8018485,30.4390959],[-81.8002983,30.4394667],[-81.7996094,30.4401299],[-81.799666,30.4403887],[-81.8000419,30.441145],[-81.799996,30.4415237],[-81.799877,30.4427729],[-81.7994606,30.4430703],[-81.7990442,30.4431893],[-81.798606,30.4431893],[-81.7974262,30.4432473],[-81.796997,30.4437633],[-81.7969004,30.4439253],[-81.7969967,30.4445035],[-81.7970353,30.4451299],[-81.7967076,30.4459008],[-81.7967076,30.4465754],[-81.796592,30.447645],[-81.7962258,30.4485412],[-81.7956669,30.4490327],[-81.7950694,30.4491483],[-81.7948234,30.4492327],[-81.7939542,30.4494333],[-81.7939213,30.4495845],[-81.7938947,30.4497069],[-81.7937162,30.4498735],[-81.7931393,30.4501213],[-81.7929879,30.450536],[-81.7929706,30.4513063],[-81.7926699,30.4513687],[-81.7922628,30.4513687],[-81.7907412,30.4520431],[-81.7904439,30.4522513],[-81.79028,30.4528777],[-81.7904342,30.4533884],[-81.7909943,30.4541811],[-81.7909546,30.4546315],[-81.7901837,30.4549977],[-81.7887093,30.4544195],[-81.7880525,30.454422],[-81.7864926,30.4551461],[-81.7850351,30.455265],[-81.7830006,30.4551093],[-81.7825023,30.4550711],[-81.7817435,30.4547676],[-81.7809435,30.4545322],[-81.7803527,30.4544887],[-81.7795334,30.4546427],[-81.7791423,30.4547849],[-81.7782334,30.4550926],[-81.7771699,30.4552839],[-81.7757586,30.454963],[-81.7743233,30.454394],[-81.7730491,30.4539955],[-81.7719744,30.4537627],[-81.7710733,30.453741],[-81.7703898,30.4538668],[-81.7701361,30.4538458],[-81.7698827,30.4538247],[-81.7695525,30.453389],[-81.7691972,30.4528632],[-81.7685927,30.4522757],[-81.7679993,30.4519409],[-81.7671783,30.4517562],[-81.7658872,30.4514795],[-81.7647254,30.4509088],[-81.7635279,30.4505323],[-81.7623529,30.4504039],[-81.7615875,30.4505437],[-81.7613968,30.4506725],[-81.761241,30.4517808],[-81.7610447,30.4523697],[-81.7602689,30.4523518],[-81.7593188,30.4520907],[-81.7588329,30.4521197],[-81.7586008,30.4527361],[-81.7582527,30.4544984],[-81.757998,30.4552363],[-81.7576432,30.4558354],[-81.7567041,30.4562502],[-81.7563333,30.4566471],[-81.7556626,30.4572917],[-81.7547634,30.4582895],[-81.7544937,30.4590626],[-81.7541483,30.4598586],[-81.7536005,30.4606333],[-81.7530575,30.4613042],[-81.7522096,30.4619813],[-81.7515832,30.4625625],[-81.750922,30.4629814],[-81.7502249,30.4635132],[-81.7499332,30.4644804],[-81.7499274,30.4654686],[-81.7501265,30.4662119],[-81.7506997,30.4668493],[-81.7518828,30.4670725],[-81.7527714,30.4671441],[-81.7534659,30.4673792],[-81.7540882,30.4679125],[-81.7546351,30.4684959],[-81.7551313,30.4690615],[-81.7559599,30.4693725],[-81.7566147,30.469468],[-81.7574745,30.4698149],[-81.758162,30.4704381],[-81.7581831,30.4710967],[-81.7579943,30.4716482],[-81.7577702,30.4724797],[-81.7575795,30.4733696],[-81.7571928,30.4739719],[-81.756619,30.4742008],[-81.7553923,30.4740681],[-81.7540465,30.473945],[-81.7527713,30.4739885],[-81.7518931,30.4737905],[-81.7509919,30.4732814],[-81.7498144,30.4729453],[-81.7495329,30.4727438],[-81.7491117,30.4727057],[-81.7485765,30.4725734],[-81.7477933,30.4723342],[-81.7471864,30.472067],[-81.7466687,30.4718444],[-81.746011,30.4715729],[-81.7453867,30.4713374],[-81.7447486,30.4711966],[-81.7441915,30.4713577],[-81.7440531,30.4713946],[-81.7439265,30.4714405],[-81.7437701,30.4715542],[-81.7432554,30.4720263],[-81.7426736,30.4727425],[-81.7420524,30.473337],[-81.7415393,30.4738949],[-81.7407452,30.4743551],[-81.7401532,30.4747691],[-81.7395475,30.475526],[-81.7392834,30.4762448],[-81.7394945,30.4773896],[-81.7396356,30.4784356],[-81.7397528,30.4796396],[-81.7396957,30.4806144],[-81.7395095,30.4809674],[-81.7391634,30.4812265],[-81.738641,30.4816265],[-81.7380124,30.4820768],[-81.7373557,30.4824189],[-81.7366934,30.4827204],[-81.7359101,30.4830632],[-81.7343971,30.4834056],[-81.7331585,30.4834486],[-81.7315684,30.4837599],[-81.7304376,30.4841497],[-81.7298686,30.4849109],[-81.7297322,30.4856922],[-81.7295515,30.4863925],[-81.7290829,30.4870403],[-81.7290251,30.487061],[-81.728451,30.487274],[-81.7278903,30.4871372],[-81.7267601,30.4867014],[-81.7255258,30.4864827],[-81.7248581,30.4868925],[-81.7244022,30.4875356],[-81.7240968,30.4879795],[-81.7235218,30.4881587],[-81.7225078,30.4883222],[-81.7213651,30.4889241],[-81.7204985,30.489741],[-81.7195957,30.4906438],[-81.7185216,30.4915882],[-81.7175614,30.4919815],[-81.7167529,30.4918506],[-81.7160393,30.491656],[-81.714893,30.4914592],[-81.7139981,30.4914461],[-81.712591,30.491729],[-81.7108217,30.4924132],[-81.7093675,30.4929197],[-81.7081412,30.493003],[-81.7081304,30.4930031],[-81.7065714,30.4928221],[-81.7053927,30.4925126],[-81.7027929,30.4923191],[-81.7020467,30.4925713],[-81.7014106,30.4930936],[-81.7009902,30.4934974],[-81.7006071,30.4937792],[-81.6997473,30.4941267],[-81.698563,30.494494],[-81.6965837,30.495073],[-81.6949143,30.4956685],[-81.6933154,30.4963132],[-81.6913051,30.4971044],[-81.6886155,30.4978631],[-81.6870707,30.4982908],[-81.685138,30.4987477],[-81.6834964,30.4989638],[-81.681617,30.499506],[-81.6798121,30.5002329],[-81.6795573,30.5002567],[-81.6793548,30.5002668],[-81.6792078,30.5002901],[-81.6789098,30.5003323],[-81.678802,30.5003419],[-81.6787635,30.5004233],[-81.6782493,30.5004666],[-81.6778191,30.5006087],[-81.6771336,30.5008288],[-81.6764544,30.5010309],[-81.6761686,30.5011091],[-81.6756999,30.5012694],[-81.675548,30.5013108],[-81.6753139,30.5015015],[-81.6753052,30.5015083],[-81.6748722,30.5018647],[-81.6744415,30.5021602],[-81.6739992,30.5024874],[-81.673601,30.5027692],[-81.673247,30.5030146],[-81.6729627,30.5032011],[-81.6726525,30.5033651],[-81.6723235,30.5034886],[-81.6721137,30.5035213],[-81.6718834,30.5035225],[-81.6716931,30.5035009],[-81.6713502,30.5035072],[-81.6710191,30.5035224],[-81.6707783,30.5034966],[-81.6703122,30.5034358],[-81.6701409,30.5034322],[-81.6697586,30.5034341],[-81.6694228,30.5034268],[-81.668926,30.5033978],[-81.6688497,30.5033892],[-81.6686133,30.5033047],[-81.6682886,30.5031935],[-81.6680394,30.503091],[-81.6679044,30.5029789],[-81.6678212,30.5028981],[-81.6677706,30.5028352],[-81.66775,30.5026774],[-81.6678294,30.5023793],[-81.667916,30.5021487],[-81.6681168,30.5017912],[-81.6682042,30.5015652],[-81.6682913,30.5013121],[-81.6682834,30.5011587],[-81.66818,30.5009923],[-81.6679425,30.5008221],[-81.6677512,30.5007148],[-81.6674826,30.5005222],[-81.6672654,30.5003924],[-81.667201,30.5003567],[-81.667061,30.5002581],[-81.6669773,30.5001593],[-81.6669577,30.5001098],[-81.6665119,30.4994894],[-81.6659869,30.4991357],[-81.665271,30.4987332],[-81.6645919,30.4982359],[-81.6637903,30.4975858],[-81.6630699,30.4969533],[-81.662593,30.4963421],[-81.662102,30.4956362],[-81.6614525,30.4949763],[-81.6602421,30.4941071],[-81.6594339,30.4937683],[-81.6591058,30.4936346],[-81.6581802,30.493319],[-81.6572156,30.492814],[-81.65644,30.4922359],[-81.6560909,30.4916962],[-81.6558008,30.490881],[-81.6554835,30.4903232],[-81.6548507,30.4899654],[-81.6534842,30.4898775],[-81.6501724,30.4902234],[-81.646233,30.4901438],[-81.6413859,30.4905332],[-81.6407731,30.4919348],[-81.6402101,30.4931332],[-81.6393098,30.4948747],[-81.6384433,30.4968281],[-81.6374815,30.4992827],[-81.6369365,30.5004494],[-81.6369107,30.5006435],[-81.6367668,30.5009465],[-81.6364974,30.5014351],[-81.636373,30.5017335],[-81.6362184,30.5022531],[-81.6362051,30.5023073],[-81.6361319,30.5025242],[-81.6360749,30.5026644],[-81.6360255,30.5028271],[-81.6359439,30.5030034],[-81.6357821,30.5033065],[-81.6356443,30.5035553],[-81.6354865,30.5037772],[-81.6354239,30.5038632],[-81.6353482,30.5039403],[-81.6351207,30.5040632],[-81.63465,30.5041467],[-81.6342238,30.5041623],[-81.6337802,30.5042457],[-81.6331314,30.5043301],[-81.6324388,30.5044056],[-81.6321466,30.5044837],[-81.6316959,30.5045446],[-81.6313839,30.5045371],[-81.6310276,30.5045388],[-81.6307613,30.5045491],[-81.6305188,30.5045593],[-81.6301692,30.5044888],[-81.6297545,30.5043103],[-81.6294352,30.5041991],[-81.6288802,30.5040303],[-81.6282891,30.503979],[-81.6276974,30.504027],[-81.6271508,30.5040612],[-81.6264953,30.5040598],[-81.6261899,30.5040252],[-81.6258268,30.5040269],[-81.6254028,30.5039748],[-81.6251,30.5039763],[-81.6248316,30.5039144],[-81.6242458,30.5038811],[-81.6237827,30.5038788],[-81.6235214,30.5039026],[-81.623267,30.5038948],[-81.6231019,30.5039046],[-81.6228737,30.5039102],[-81.6226127,30.5039386],[-81.6224537,30.5040882],[-81.6223955,30.5042103],[-81.6221275,30.504771],[-81.6217253,30.5054272],[-81.6214831,30.5061186],[-81.6210867,30.5069191],[-81.6205757,30.5077337],[-81.6202695,30.5082405],[-81.6198921,30.5088243],[-81.619427,30.5095755],[-81.6189995,30.5103671],[-81.6187629,30.5107562],[-81.6185395,30.5111769],[-81.6184244,30.511412],[-81.6182832,30.5117421],[-81.6182579,30.5118053],[-81.6182329,30.5118686],[-81.6177244,30.5118034],[-81.6171331,30.5118197],[-81.6166937,30.5118669],[-81.6159954,30.5119198],[-81.6154933,30.5119358],[-81.6145901,30.5119671],[-81.6135792,30.5119809],[-81.6121877,30.5120009],[-81.6110248,30.5120154],[-81.6105156,30.5121035],[-81.6102034,30.5121772],[-81.6097646,30.5122108],[-81.6095865,30.5122252],[-81.6090594,30.5122502],[-81.6083223,30.5121409],[-81.6076549,30.5120673],[-81.6067143,30.5121168],[-81.6059578,30.512188],[-81.6052712,30.5122273],[-81.6044062,30.5122313],[-81.6043362,30.5122316],[-81.6037369,30.5122344],[-81.6035735,30.5122351],[-81.6026959,30.5123069],[-81.6022646,30.5122908],[-81.6021313,30.5122824],[-81.6021008,30.5122532],[-81.6020041,30.5121567],[-81.6016555,30.5117657]]]]}}
]
}
